{"type":"FeatureCollection","features":[{"type":"Feature","properties":{"id":"sob-1","name":"Infectious Diseases Hospital","type":"Government Hospital","source":"Survey of Bangladesh, OpenStreetMap and Google Maps"},"geometry":{"type":"Point","coordinates":[90.405793,23.775969]}},{"type":"Feature","properties":{"id":"sob-2","name":"National Institute Of Cancer Hospital","type":"Government Hospital","source":"Survey of Bangladesh, OpenStreetMap and Google Maps"},"geometry":{"type":"Point","coordinates":[90.409611,23.778354]}},{"type":"Feature","properties":{"id":"sob-3","name":"Natinal Institute Of Diseases Of Chest & Hospital","type":"Government Hospital","source":"Survey of Bangladesh, OpenStreetMap and Google Maps"},"geometry":{"type":"Point","coordinates":[90.409685,23.777579]}},{"type":"Feature","properties":{"id":"sob-4","name":"Ra Hospital Education & Trainning Institute","type":"Private Hospital","source":"Survey of Bangladesh, OpenStreetMap and Google Maps"},"geometry":{"type":"Point","coordinates":[90.421529,23.791354]}},{"type":"Feature","properties":{"id":"sob-5","name":"United Hospital Limited","type":"Private Hospital","source":"Survey of Bangladesh, OpenStreetMap and Google Maps"},"geometry":{"type":"Point","coordinates":[90.415575,23.804554]}},{"type":"Feature","properties":{"id":"sob-6","name":"Sobhan Nursing Home","type":"HS_Misc","source":"Survey of Bangladesh, OpenStreetMap and Google Maps"},"geometry":{"type":"Point","coordinates":[90.432515,23.691754]}},{"type":"Feature","properties":{"id":"sob-7","name":"South East Medical College Hospital","type":"Private Hospital","source":"Survey of Bangladesh, OpenStreetMap and Google Maps"},"geometry":{"type":"Point","coordinates":[90.43263,23.6923]}},{"type":"Feature","properties":{"id":"sob-8","name":"Nagar Health Centre","type":"Private Hospital","source":"Survey of Bangladesh, OpenStreetMap and Google Maps"},"geometry":{"type":"Point","coordinates":[90.428527,23.693281]}},{"type":"Feature","properties":{"id":"sob-9","name":"Baridhara General Hospital","type":"Private Hospital","source":"Survey of Bangladesh, OpenStreetMap and Google Maps"},"geometry":{"type":"Point","coordinates":[90.420794,23.809604]}},{"type":"Feature","properties":{"id":"sob-10","name":"Apollo Hospital","type":"Private Hospital","source":"Survey of Bangladesh, OpenStreetMap and Google Maps"},"geometry":{"type":"Point","coordinates":[90.431349,23.810111]}},{"type":"Feature","properties":{"id":"sob-11","name":"Kurmitola General Hospital","type":"Government Hospital","source":"Survey of Bangladesh, OpenStreetMap and Google Maps"},"geometry":{"type":"Point","coordinates":[90.409388,23.819319]}},{"type":"Feature","properties":{"id":"sob-12","name":"Meditech General Hospital","type":"Private Hospital","source":"Survey of Bangladesh, OpenStreetMap and Google Maps"},"geometry":{"type":"Point","coordinates":[90.418908,23.82875]}},{"type":"Feature","properties":{"id":"sob-13","name":"Lions Eye Hospital","type":"Private Hospital","source":"Survey of Bangladesh, OpenStreetMap and Google Maps"},"geometry":{"type":"Point","coordinates":[90.420902,23.816713]}},{"type":"Feature","properties":{"id":"sob-14","name":"Bashundhara Eye Hospital","type":"Private Hospital","source":"Survey of Bangladesh, OpenStreetMap and Google Maps"},"geometry":{"type":"Point","coordinates":[90.435909,23.816589]}},{"type":"Feature","properties":{"id":"sob-15","name":"ICDC Consultation Diagnostic Center","type":"Diagnostic Center","source":"Survey of Bangladesh, OpenStreetMap and Google Maps"},"geometry":{"type":"Point","coordinates":[90.421125,23.818515]}},{"type":"Feature","properties":{"id":"sob-16","name":"Marks Medical College & Hospital","type":"Private Hospital","source":"Survey of Bangladesh, OpenStreetMap and Google Maps"},"geometry":{"type":"Point","coordinates":[90.386707,23.798985]}},{"type":"Feature","properties":{"id":"sob-17","name":"Medi Health Centre","type":"HS_Misc","source":"Survey of Bangladesh, OpenStreetMap and Google Maps"},"geometry":{"type":"Point","coordinates":[90.474198,23.717789]}},{"type":"Feature","properties":{"id":"sob-18","name":"C M H","type":"Government Hospital","source":"Survey of Bangladesh, OpenStreetMap and Google Maps"},"geometry":{"type":"Point","coordinates":[90.398777,23.814129]}},{"type":"Feature","properties":{"id":"sob-19","name":"Govt Homeopathic Medical College & Hospital","type":"Government Hospital","source":"Survey of Bangladesh, OpenStreetMap and Google Maps"},"geometry":{"type":"Point","coordinates":[90.389079,23.803292]}},{"type":"Feature","properties":{"id":"sob-20","name":"Surovi Matarnity General Hospital","type":"Private Hospital","source":"Survey of Bangladesh, OpenStreetMap and Google Maps"},"geometry":{"type":"Point","coordinates":[90.396201,23.819138]}},{"type":"Feature","properties":{"id":"sob-21","name":"OGSB Hospital & Institute Of Child Health","type":"NGO Hospital","source":"Survey of Bangladesh, OpenStreetMap and Google Maps"},"geometry":{"type":"Point","coordinates":[90.382037,23.808207]}},{"type":"Feature","properties":{"id":"sob-22","name":"CRP Mirpur 13","type":"NGO Hospital","source":"Survey of Bangladesh, OpenStreetMap and Google Maps"},"geometry":{"type":"Point","coordinates":[90.387075,23.803849]}},{"type":"Feature","properties":{"id":"sob-23","name":"Siraj Khaleda Memorial Cantonment Board Central Hospital","type":"Private Hospital","source":"Survey of Bangladesh, OpenStreetMap and Google Maps"},"geometry":{"type":"Point","coordinates":[90.39354,23.799166]}},{"type":"Feature","properties":{"id":"sob-24","name":"Cantonment General Hospital","type":"Private Hospital","source":"Survey of Bangladesh, OpenStreetMap and Google Maps"},"geometry":{"type":"Point","coordinates":[90.39363,23.799561]}},{"type":"Feature","properties":{"id":"sob-25","name":"Shisu Matree Sastha Ins.","type":"HS_Misc","source":"Survey of Bangladesh, OpenStreetMap and Google Maps"},"geometry":{"type":"Point","coordinates":[90.466233,23.693752]}},{"type":"Feature","properties":{"id":"sob-26","name":"Galaxy Hospital","type":"Private Hospital","source":"Survey of Bangladesh, OpenStreetMap and Google Maps"},"geometry":{"type":"Point","coordinates":[90.367444,23.806565]}},{"type":"Feature","properties":{"id":"sob-27","name":"Mirpur Digital D Centre","type":"Diagnostic Center","source":"Survey of Bangladesh, OpenStreetMap and Google Maps"},"geometry":{"type":"Point","coordinates":[90.371398,23.806774]}},{"type":"Feature","properties":{"id":"sob-28","name":"Govt. Unani Medical College & Hospital","type":"Government Hospital","source":"Survey of Bangladesh, OpenStreetMap and Google Maps"},"geometry":{"type":"Point","coordinates":[90.37803,23.804766]}},{"type":"Feature","properties":{"id":"sob-29","name":"Ahsania Mission Cancer Hospital","type":"Private Hospital","source":"Survey of Bangladesh, OpenStreetMap and Google Maps"},"geometry":{"type":"Point","coordinates":[90.377352,23.803824]}},{"type":"Feature","properties":{"id":"sob-30","name":"Community Clinic","type":"Community Clinic","source":"Survey of Bangladesh, OpenStreetMap and Google Maps"},"geometry":{"type":"Point","coordinates":[90.377229,23.806592]}},{"type":"Feature","properties":{"id":"sob-31","name":"Govt Hospital","type":"Government Hospital","source":"Survey of Bangladesh, OpenStreetMap and Google Maps"},"geometry":{"type":"Point","coordinates":[90.36251,23.804235]}},{"type":"Feature","properties":{"id":"sob-32","name":"Kidney Foundation","type":"Private Hospital","source":"Survey of Bangladesh, OpenStreetMap and Google Maps"},"geometry":{"type":"Point","coordinates":[90.360209,23.802813]}},{"type":"Feature","properties":{"id":"sob-33","name":"Mirpur Eye Hospital","type":"Private Hospital","source":"Survey of Bangladesh, OpenStreetMap and Google Maps"},"geometry":{"type":"Point","coordinates":[90.361527,23.803695]}},{"type":"Feature","properties":{"id":"sob-34","name":"National Heart Foundation","type":"Private Hospital","source":"Survey of Bangladesh, OpenStreetMap and Google Maps"},"geometry":{"type":"Point","coordinates":[90.361782,23.803884]}},{"type":"Feature","properties":{"id":"sob-35","name":"Delta Medical College Hospital","type":"Private Hospital","source":"Survey of Bangladesh, OpenStreetMap and Google Maps"},"geometry":{"type":"Point","coordinates":[90.353527,23.787858]}},{"type":"Feature","properties":{"id":"sob-36","name":"National Heart Foundation","type":"Private Hospital","source":"Survey of Bangladesh, OpenStreetMap and Google Maps"},"geometry":{"type":"Point","coordinates":[90.353138,23.788505]}},{"type":"Feature","properties":{"id":"sob-37","name":"Nagar Health Centre","type":"Private Hospital","source":"Survey of Bangladesh, OpenStreetMap and Google Maps"},"geometry":{"type":"Point","coordinates":[90.352514,23.799624]}},{"type":"Feature","properties":{"id":"sob-38","name":"Labaid Hospital","type":"Private Hospital","source":"Survey of Bangladesh, OpenStreetMap and Google Maps"},"geometry":{"type":"Point","coordinates":[90.354083,23.799214]}},{"type":"Feature","properties":{"id":"sob-39","name":"Dhaka Eye Hospital","type":"Private Hospital","source":"Survey of Bangladesh, OpenStreetMap and Google Maps"},"geometry":{"type":"Point","coordinates":[90.355311,23.799311]}},{"type":"Feature","properties":{"id":"sob-40","name":"B.D. Cancer Socity Hospital","type":"Private Hospital","source":"Survey of Bangladesh, OpenStreetMap and Google Maps"},"geometry":{"type":"Point","coordinates":[90.350793,23.781829]}},{"type":"Feature","properties":{"id":"sob-41","name":"Ibna Sina Hospital","type":"Private Hospital","source":"Survey of Bangladesh, OpenStreetMap and Google Maps"},"geometry":{"type":"Point","coordinates":[90.359925,23.778272]}},{"type":"Feature","properties":{"id":"sob-42","name":"Mostofa Eye Hospital","type":"Private Hospital","source":"Survey of Bangladesh, OpenStreetMap and Google Maps"},"geometry":{"type":"Point","coordinates":[90.353619,23.783972]}},{"type":"Feature","properties":{"id":"sob-43","name":"Ibna Sina Hospital","type":"Private Hospital","source":"Survey of Bangladesh, OpenStreetMap and Google Maps"},"geometry":{"type":"Point","coordinates":[90.361544,23.778108]}},{"type":"Feature","properties":{"id":"sob-44","name":"Merry Stop Clinic","type":"Community Clinic","source":"Survey of Bangladesh, OpenStreetMap and Google Maps"},"geometry":{"type":"Point","coordinates":[90.360162,23.78198]}},{"type":"Feature","properties":{"id":"sob-45","name":"ICDDRB Hospital","type":"Government Hospital","source":"Survey of Bangladesh, OpenStreetMap and Google Maps"},"geometry":{"type":"Point","coordinates":[90.399248,23.77655]}},{"type":"Feature","properties":{"id":"sob-46","name":"Impulse  Hospital Tejgaon","type":"Private Hospital","source":"Survey of Bangladesh, OpenStreetMap and Google Maps"},"geometry":{"type":"Point","coordinates":[90.39915,23.767788]}},{"type":"Feature","properties":{"id":"sob-47","name":"Metropolyton Medical Centre Ltd","type":"Private Hospital","source":"Survey of Bangladesh, OpenStreetMap and Google Maps"},"geometry":{"type":"Point","coordinates":[90.399123,23.773498]}},{"type":"Feature","properties":{"id":"sob-48","name":"Lions Eye Institute &  Hospital","type":"Private Hospital","source":"Survey of Bangladesh, OpenStreetMap and Google Maps"},"geometry":{"type":"Point","coordinates":[90.379438,23.779595]}},{"type":"Feature","properties":{"id":"sob-49","name":"Aysha Memorial Hopital","type":"Private Hospital","source":"Survey of Bangladesh, OpenStreetMap and Google Maps"},"geometry":{"type":"Point","coordinates":[90.39597,23.777056]}},{"type":"Feature","properties":{"id":"sob-50","name":"A F I P","type":"NGO Hospital","source":"Survey of Bangladesh, OpenStreetMap and Google Maps"},"geometry":{"type":"Point","coordinates":[90.401336,23.814532]}},{"type":"Feature","properties":{"id":"sob-51","name":"Govt Hospital","type":"Government Hospital","source":"Survey of Bangladesh, OpenStreetMap and Google Maps"},"geometry":{"type":"Point","coordinates":[90.346994,23.788214]}},{"type":"Feature","properties":{"id":"sob-52","name":"Shilina General Hospital","type":"Private Hospital","source":"Survey of Bangladesh, OpenStreetMap and Google Maps"},"geometry":{"type":"Point","coordinates":[90.347615,23.787144]}},{"type":"Feature","properties":{"id":"sob-53","name":"Surjer Hasi Clinic","type":"Community Clinic","source":"Survey of Bangladesh, OpenStreetMap and Google Maps"},"geometry":{"type":"Point","coordinates":[90.344307,23.792154]}},{"type":"Feature","properties":{"id":"sob-54","name":"City Matrisadan","type":"HS_Misc","source":"Survey of Bangladesh, OpenStreetMap and Google Maps"},"geometry":{"type":"Point","coordinates":[90.431678,23.718881]}},{"type":"Feature","properties":{"id":"sob-55","name":"Al karim General Hospital","type":"Private Hospital","source":"Survey of Bangladesh, OpenStreetMap and Google Maps"},"geometry":{"type":"Point","coordinates":[90.430811,23.713437]}},{"type":"Feature","properties":{"id":"sob-56","name":"Islamia General Hospital","type":"Private Hospital","source":"Survey of Bangladesh, OpenStreetMap and Google Maps"},"geometry":{"type":"Point","coordinates":[90.430921,23.713108]}},{"type":"Feature","properties":{"id":"sob-57","name":"Islami Bank Hospital","type":"Private Hospital","source":"Survey of Bangladesh, OpenStreetMap and Google Maps"},"geometry":{"type":"Point","coordinates":[90.365321,23.819538]}},{"type":"Feature","properties":{"id":"sob-58","name":"Rohima Metarnity Hospital","type":"Private Hospital","source":"Survey of Bangladesh, OpenStreetMap and Google Maps"},"geometry":{"type":"Point","coordinates":[90.36761,23.809674]}},{"type":"Feature","properties":{"id":"sob-59","name":"Lab Aid D Centre","type":"Diagnostic Center","source":"Survey of Bangladesh, OpenStreetMap and Google Maps"},"geometry":{"type":"Point","coordinates":[90.365149,23.818612]}},{"type":"Feature","properties":{"id":"sob-60","name":"Post Officepular D Centre","type":"Diagnostic Center","source":"Survey of Bangladesh, OpenStreetMap and Google Maps"},"geometry":{"type":"Point","coordinates":[90.367293,23.810665]}},{"type":"Feature","properties":{"id":"sob-61","name":"Hospital","type":"HS_Misc","source":"Survey of Bangladesh, OpenStreetMap and Google Maps"},"geometry":{"type":"Point","coordinates":[90.377073,23.717199]}},{"type":"Feature","properties":{"id":"sob-62","name":"Nagar Health Centre","type":"HS_Misc","source":"Survey of Bangladesh, OpenStreetMap and Google Maps"},"geometry":{"type":"Point","coordinates":[90.379604,23.716369]}},{"type":"Feature","properties":{"id":"sob-63","name":"Mandy Dental College & Hospital","type":"Private Hospital","source":"Survey of Bangladesh, OpenStreetMap and Google Maps"},"geometry":{"type":"Point","coordinates":[90.356026,23.741407]}},{"type":"Feature","properties":{"id":"sob-64","name":"Nagar Matri Sadon","type":"Government Hospital","source":"Survey of Bangladesh, OpenStreetMap and Google Maps"},"geometry":{"type":"Point","coordinates":[90.372764,23.727]}},{"type":"Feature","properties":{"id":"sob-65","name":"Northern International Medical College And Hospital","type":"Private Hospital","source":"Survey of Bangladesh, OpenStreetMap and Google Maps"},"geometry":{"type":"Point","coordinates":[90.372045,23.744193]}},{"type":"Feature","properties":{"id":"sob-66","name":"Bangladesh Eye Trust Hospital","type":"Private Hospital","source":"Survey of Bangladesh, OpenStreetMap and Google Maps"},"geometry":{"type":"Point","coordinates":[90.360444,23.74393]}},{"type":"Feature","properties":{"id":"sob-67","name":"Nagar Sastha Kendra","type":"Private Hospital","source":"Survey of Bangladesh, OpenStreetMap and Google Maps"},"geometry":{"type":"Point","coordinates":[90.36258,23.745485]}},{"type":"Feature","properties":{"id":"sob-68","name":"Life And Care Hospital","type":"Private Hospital","source":"Survey of Bangladesh, OpenStreetMap and Google Maps"},"geometry":{"type":"Point","coordinates":[90.358155,23.730751]}},{"type":"Feature","properties":{"id":"sob-69","name":"Sikder Medical College & Hospital","type":"Private Hospital","source":"Survey of Bangladesh, OpenStreetMap and Google Maps"},"geometry":{"type":"Point","coordinates":[90.359524,23.741204]}},{"type":"Feature","properties":{"id":"sob-70","name":"Jurain Health Care Centre","type":"NGO Hospital","source":"Survey of Bangladesh, OpenStreetMap and Google Maps"},"geometry":{"type":"Point","coordinates":[90.436439,23.694437]}},{"type":"Feature","properties":{"id":"sob-71","name":"Mirpur Adunik Hospital","type":"Private Hospital","source":"Survey of Bangladesh, OpenStreetMap and Google Maps"},"geometry":{"type":"Point","coordinates":[90.369066,23.823469]}},{"type":"Feature","properties":{"id":"sob-72","name":"Aklima Hospital","type":"Private Hospital","source":"Survey of Bangladesh, OpenStreetMap and Google Maps"},"geometry":{"type":"Point","coordinates":[90.368516,23.824805]}},{"type":"Feature","properties":{"id":"sob-73","name":"Kingstone Hospital Sec 12 Block D","type":"Private Hospital","source":"Survey of Bangladesh, OpenStreetMap and Google Maps"},"geometry":{"type":"Point","coordinates":[90.37618,23.829813]}},{"type":"Feature","properties":{"id":"sob-74","name":"Sapro Hospital","type":"Private Hospital","source":"Survey of Bangladesh, OpenStreetMap and Google Maps"},"geometry":{"type":"Point","coordinates":[90.404167,23.881041]}},{"type":"Feature","properties":{"id":"sob-75","name":"Aichi Hospital","type":"Private Hospital","source":"Survey of Bangladesh, OpenStreetMap and Google Maps"},"geometry":{"type":"Point","coordinates":[90.404334,23.881637]}},{"type":"Feature","properties":{"id":"sob-76","name":"Kuet Bangladesh Government Hospital","type":"Government Hospital","source":"Survey of Bangladesh, OpenStreetMap and Google Maps"},"geometry":{"type":"Point","coordinates":[90.403597,23.870391]}},{"type":"Feature","properties":{"id":"sob-77","name":"Uttara Community Hospital","type":"Government Hospital","source":"Survey of Bangladesh, OpenStreetMap and Google Maps"},"geometry":{"type":"Point","coordinates":[90.403825,23.869163]}},{"type":"Feature","properties":{"id":"sob-78","name":"Uttara Adhunik Medical College & Hospital","type":"Private Hospital","source":"Survey of Bangladesh, OpenStreetMap and Google Maps"},"geometry":{"type":"Point","coordinates":[90.396885,23.874592]}},{"type":"Feature","properties":{"id":"sob-79","name":"Hi Care General Hospital","type":"Private Hospital","source":"Survey of Bangladesh, OpenStreetMap and Google Maps"},"geometry":{"type":"Point","coordinates":[90.394002,23.869433]}},{"type":"Feature","properties":{"id":"sob-80","name":"Uttara Cresent Hospital","type":"Private Hospital","source":"Survey of Bangladesh, OpenStreetMap and Google Maps"},"geometry":{"type":"Point","coordinates":[90.397295,23.867413]}},{"type":"Feature","properties":{"id":"sob-81","name":"RMC Hospital Uttara Sec 7","type":"Private Hospital","source":"Survey of Bangladesh, OpenStreetMap and Google Maps"},"geometry":{"type":"Point","coordinates":[90.399896,23.87042]}},{"type":"Feature","properties":{"id":"sob-82","name":"Nos Trum Hospital","type":"Private Hospital","source":"Survey of Bangladesh, OpenStreetMap and Google Maps"},"geometry":{"type":"Point","coordinates":[90.402358,23.874411]}},{"type":"Feature","properties":{"id":"sob-83","name":"Diabetis Hospital","type":"Private Hospital","source":"Survey of Bangladesh, OpenStreetMap and Google Maps"},"geometry":{"type":"Point","coordinates":[90.400406,23.864209]}},{"type":"Feature","properties":{"id":"sob-84","name":"Uttara Central Hospital","type":"Private Hospital","source":"Survey of Bangladesh, OpenStreetMap and Google Maps"},"geometry":{"type":"Point","coordinates":[90.402106,23.8576]}},{"type":"Feature","properties":{"id":"sob-85","name":"Makka Eye Hospital Uttara","type":"Private Hospital","source":"Survey of Bangladesh, OpenStreetMap and Google Maps"},"geometry":{"type":"Point","coordinates":[90.403088,23.856154]}},{"type":"Feature","properties":{"id":"sob-86","name":"Uttara Diagnostic Center","type":"Diagnostic Center","source":"Survey of Bangladesh, OpenStreetMap and Google Maps"},"geometry":{"type":"Point","coordinates":[90.397536,23.86807]}},{"type":"Feature","properties":{"id":"sob-87","name":"Labaid Diagnostic Center","type":"Diagnostic Center","source":"Survey of Bangladesh, OpenStreetMap and Google Maps"},"geometry":{"type":"Point","coordinates":[90.400729,23.871745]}},{"type":"Feature","properties":{"id":"sob-88","name":"Comfort Diagnostic Center","type":"Diagnostic Center","source":"Survey of Bangladesh, OpenStreetMap and Google Maps"},"geometry":{"type":"Point","coordinates":[90.400591,23.866342]}},{"type":"Feature","properties":{"id":"sob-89","name":"Populer Diagnostic Center","type":"Diagnostic Center","source":"Survey of Bangladesh, OpenStreetMap and Google Maps"},"geometry":{"type":"Point","coordinates":[90.400534,23.8613]}},{"type":"Feature","properties":{"id":"sob-90","name":"Holy Diagnostic Center","type":"Diagnostic Center","source":"Survey of Bangladesh, OpenStreetMap and Google Maps"},"geometry":{"type":"Point","coordinates":[90.402445,23.858633]}},{"type":"Feature","properties":{"id":"sob-91","name":"Uttara Diagnostic Center","type":"Diagnostic Center","source":"Survey of Bangladesh, OpenStreetMap and Google Maps"},"geometry":{"type":"Point","coordinates":[90.397406,23.86779]}},{"type":"Feature","properties":{"id":"sob-92","name":"Digital College & Hospital","type":"Private Hospital","source":"Survey of Bangladesh, OpenStreetMap and Google Maps"},"geometry":{"type":"Point","coordinates":[90.399779,23.869807]}},{"type":"Feature","properties":{"id":"sob-93","name":"Saluddin Specialize","type":"Private Hospital","source":"Survey of Bangladesh, OpenStreetMap and Google Maps"},"geometry":{"type":"Point","coordinates":[90.419855,23.717161]}},{"type":"Feature","properties":{"id":"sob-94","name":"Medisu Hospital","type":"Private Hospital","source":"Survey of Bangladesh, OpenStreetMap and Google Maps"},"geometry":{"type":"Point","coordinates":[90.405626,23.713666]}},{"type":"Feature","properties":{"id":"sob-95","name":"Arban Primary Health Care","type":"NGO Hospital","source":"Survey of Bangladesh, OpenStreetMap and Google Maps"},"geometry":{"type":"Point","coordinates":[90.420682,23.709798]}},{"type":"Feature","properties":{"id":"sob-96","name":"Asgar Ali Hospital","type":"Private Hospital","source":"Survey of Bangladesh, OpenStreetMap and Google Maps"},"geometry":{"type":"Point","coordinates":[90.424004,23.707894]}},{"type":"Feature","properties":{"id":"sob-97","name":"Sadona Medicine Company","type":"HS_Misc","source":"Survey of Bangladesh, OpenStreetMap and Google Maps"},"geometry":{"type":"Point","coordinates":[90.424061,23.703359]}},{"type":"Feature","properties":{"id":"sob-98","name":"Nagar Health Centre","type":"HS_Misc","source":"Survey of Bangladesh, OpenStreetMap and Google Maps"},"geometry":{"type":"Point","coordinates":[90.413949,23.70487]}},{"type":"Feature","properties":{"id":"sob-99","name":"Labaid Diagnonestic Centre","type":"Diagnostic Center","source":"Survey of Bangladesh, OpenStreetMap and Google Maps"},"geometry":{"type":"Point","coordinates":[90.424541,23.710342]}},{"type":"Feature","properties":{"id":"sob-100","name":"Dhaka Medical College Hospital -2","type":"Government Hospital","source":"Survey of Bangladesh, OpenStreetMap and Google Maps"},"geometry":{"type":"Point","coordinates":[90.395255,23.724489]}},{"type":"Feature","properties":{"id":"sob-101","name":"Central veterinary Hospital","type":"Government Hospital","source":"Survey of Bangladesh, OpenStreetMap and Google Maps"},"geometry":{"type":"Point","coordinates":[90.405336,23.723016]}},{"type":"Feature","properties":{"id":"sob-102","name":"Dhaka General Hospital","type":"Private Hospital","source":"Survey of Bangladesh, OpenStreetMap and Google Maps"},"geometry":{"type":"Point","coordinates":[90.404353,23.714011]}},{"type":"Feature","properties":{"id":"sob-103","name":"Alauddin Medical Hospital","type":"Private Hospital","source":"Survey of Bangladesh, OpenStreetMap and Google Maps"},"geometry":{"type":"Point","coordinates":[90.401025,23.712668]}},{"type":"Feature","properties":{"id":"sob-104","name":"Mitford Hospital","type":"Government Hospital","source":"Survey of Bangladesh, OpenStreetMap and Google Maps"},"geometry":{"type":"Point","coordinates":[90.400937,23.711916]}},{"type":"Feature","properties":{"id":"sob-105","name":"Dhaka Hospital","type":"Private Hospital","source":"Survey of Bangladesh, OpenStreetMap and Google Maps"},"geometry":{"type":"Point","coordinates":[90.401319,23.71339]}},{"type":"Feature","properties":{"id":"sob-106","name":"Nagar Health Centre","type":"NGO Hospital","source":"Survey of Bangladesh, OpenStreetMap and Google Maps"},"geometry":{"type":"Point","coordinates":[90.398643,23.712371]}},{"type":"Feature","properties":{"id":"sob-107","name":"Nagar Health Centre","type":"Private Hospital","source":"Survey of Bangladesh, OpenStreetMap and Google Maps"},"geometry":{"type":"Point","coordinates":[90.398521,23.712632]}},{"type":"Feature","properties":{"id":"sob-108","name":"Sir Salimulla Medical College","type":"Government Hospital","source":"Survey of Bangladesh, OpenStreetMap and Google Maps"},"geometry":{"type":"Point","coordinates":[90.400553,23.711351]}},{"type":"Feature","properties":{"id":"sob-109","name":"Padma Diagnonestic Centre","type":"Diagnostic Center","source":"Survey of Bangladesh, OpenStreetMap and Google Maps"},"geometry":{"type":"Point","coordinates":[90.412833,23.745407]}},{"type":"Feature","properties":{"id":"sob-110","name":"Bagabandhu Sheikh Mujib Medical Hospital","type":"Government Hospital","source":"Survey of Bangladesh, OpenStreetMap and Google Maps"},"geometry":{"type":"Point","coordinates":[90.396549,23.739071]}},{"type":"Feature","properties":{"id":"sob-111","name":"Ibrahim Memorial Cardiac Hospital","type":"Government Hospital","source":"Survey of Bangladesh, OpenStreetMap and Google Maps"},"geometry":{"type":"Point","coordinates":[90.39631,23.739292]}},{"type":"Feature","properties":{"id":"sob-112","name":"Holy Family Red Cricent Hospital","type":"Private Hospital","source":"Survey of Bangladesh, OpenStreetMap and Google Maps"},"geometry":{"type":"Point","coordinates":[90.402444,23.746747]}},{"type":"Feature","properties":{"id":"sob-113","name":"Popular Diagnostic Centre","type":"Diagnostic Center","source":"Survey of Bangladesh, OpenStreetMap and Google Maps"},"geometry":{"type":"Point","coordinates":[90.412573,23.74099]}},{"type":"Feature","properties":{"id":"sob-114","name":"Diagnonestic Centre","type":"Diagnostic Center","source":"Survey of Bangladesh, OpenStreetMap and Google Maps"},"geometry":{"type":"Point","coordinates":[90.381899,23.739108]}},{"type":"Feature","properties":{"id":"sob-115","name":"Labaid Hospital","type":"Private Hospital","source":"Survey of Bangladesh, OpenStreetMap and Google Maps"},"geometry":{"type":"Point","coordinates":[90.383321,23.74186]}},{"type":"Feature","properties":{"id":"sob-116","name":"Popular Medical College","type":"Private Hospital","source":"Survey of Bangladesh, OpenStreetMap and Google Maps"},"geometry":{"type":"Point","coordinates":[90.379939,23.738625]}},{"type":"Feature","properties":{"id":"sob-117","name":"Diagnonestic Centre","type":"Diagnostic Center","source":"Survey of Bangladesh, OpenStreetMap and Google Maps"},"geometry":{"type":"Point","coordinates":[90.38165,23.739281]}},{"type":"Feature","properties":{"id":"sob-118","name":"Mother Care Hospital","type":"Private Hospital","source":"Survey of Bangladesh, OpenStreetMap and Google Maps"},"geometry":{"type":"Point","coordinates":[90.374625,23.756973]}},{"type":"Feature","properties":{"id":"sob-119","name":"Green Life hospital","type":"Private Hospital","source":"Survey of Bangladesh, OpenStreetMap and Google Maps"},"geometry":{"type":"Point","coordinates":[90.385803,23.746499]}},{"type":"Feature","properties":{"id":"sob-120","name":"Medi Aid Hospital","type":"Private Hospital","source":"Survey of Bangladesh, OpenStreetMap and Google Maps"},"geometry":{"type":"Point","coordinates":[90.379765,23.750437]}},{"type":"Feature","properties":{"id":"sob-121","name":"Square Hospital","type":"Private Hospital","source":"Survey of Bangladesh, OpenStreetMap and Google Maps"},"geometry":{"type":"Point","coordinates":[90.381601,23.752907]}},{"type":"Feature","properties":{"id":"sob-122","name":"Samorita Medical College & Hospital","type":"Private Hospital","source":"Survey of Bangladesh, OpenStreetMap and Google Maps"},"geometry":{"type":"Point","coordinates":[90.384867,23.75271]}},{"type":"Feature","properties":{"id":"sob-123","name":"Bepza Complex","type":"HS_Misc","source":"Survey of Bangladesh, OpenStreetMap and Google Maps"},"geometry":{"type":"Point","coordinates":[90.384477,23.744281]}},{"type":"Feature","properties":{"id":"sob-124","name":"Brighton Hospital Diagnonestic Centre","type":"Diagnostic Center","source":"Survey of Bangladesh, OpenStreetMap and Google Maps"},"geometry":{"type":"Point","coordinates":[90.39201,23.742317]}},{"type":"Feature","properties":{"id":"sob-125","name":"BACC Womens & Children Hospital","type":"Private Hospital","source":"Survey of Bangladesh, OpenStreetMap and Google Maps"},"geometry":{"type":"Point","coordinates":[90.38885,23.750121]}},{"type":"Feature","properties":{"id":"sob-126","name":"Ibrahim General Hospital","type":"Private Hospital","source":"Survey of Bangladesh, OpenStreetMap and Google Maps"},"geometry":{"type":"Point","coordinates":[90.373261,23.747205]}},{"type":"Feature","properties":{"id":"sob-127","name":"Bangladesh Eye Hospital","type":"Private Hospital","source":"Survey of Bangladesh, OpenStreetMap and Google Maps"},"geometry":{"type":"Point","coordinates":[90.367293,23.75161]}},{"type":"Feature","properties":{"id":"sob-128","name":"Nagar Gonosastha Hospital","type":"Private Hospital","source":"Survey of Bangladesh, OpenStreetMap and Google Maps"},"geometry":{"type":"Point","coordinates":[90.382506,23.743506]}},{"type":"Feature","properties":{"id":"sob-129","name":"Police Central Hospital ,Rajarbagh","type":"Government Hospital","source":"Survey of Bangladesh, OpenStreetMap and Google Maps"},"geometry":{"type":"Point","coordinates":[90.417007,23.735603]}},{"type":"Feature","properties":{"id":"sob-130","name":"Islami Bank Specialise Hospital","type":"Private Hospital","source":"Survey of Bangladesh, OpenStreetMap and Google Maps"},"geometry":{"type":"Point","coordinates":[90.414875,23.735858]}},{"type":"Feature","properties":{"id":"sob-131","name":"BGB Hospital","type":"Government Hospital","source":"Survey of Bangladesh, OpenStreetMap and Google Maps"},"geometry":{"type":"Point","coordinates":[90.37809,23.726818]}},{"type":"Feature","properties":{"id":"sob-132","name":"Dhaka Medical College Hospital","type":"Government Hospital","source":"Survey of Bangladesh, OpenStreetMap and Google Maps"},"geometry":{"type":"Point","coordinates":[90.397674,23.72621]}},{"type":"Feature","properties":{"id":"sob-133","name":"Bardem General Hospital-2, (Mohila & Shisu)","type":"Government Hospital","source":"Survey of Bangladesh, OpenStreetMap and Google Maps"},"geometry":{"type":"Point","coordinates":[90.406481,23.732064]}},{"type":"Feature","properties":{"id":"sob-134","name":"Sabuj Bangla General Hospital","type":"Private Hospital","source":"Survey of Bangladesh, OpenStreetMap and Google Maps"},"geometry":{"type":"Point","coordinates":[90.384473,23.891611]}},{"type":"Feature","properties":{"id":"sob-135","name":"Green Land Hospital","type":"Private Hospital","source":"Survey of Bangladesh, OpenStreetMap and Google Maps"},"geometry":{"type":"Point","coordinates":[90.38488,23.895532]}},{"type":"Feature","properties":{"id":"sob-136","name":"Cardia Care General Hospital","type":"Private Hospital","source":"Survey of Bangladesh, OpenStreetMap and Google Maps"},"geometry":{"type":"Point","coordinates":[90.380534,23.874348]}},{"type":"Feature","properties":{"id":"sob-137","name":"Shin Shin Japan Hospital","type":"NGO Hospital","source":"Survey of Bangladesh, OpenStreetMap and Google Maps"},"geometry":{"type":"Point","coordinates":[90.390499,23.877244]}},{"type":"Feature","properties":{"id":"sob-138","name":"Nagar Health Centre","type":"HS_Misc","source":"Survey of Bangladesh, OpenStreetMap and Google Maps"},"geometry":{"type":"Point","coordinates":[90.388929,23.886922]}},{"type":"Feature","properties":{"id":"sob-139","name":"Ahsania Misson Cancer & General Hospital","type":"NGO Hospital","source":"Survey of Bangladesh, OpenStreetMap and Google Maps"},"geometry":{"type":"Point","coordinates":[90.390495,23.887431]}},{"type":"Feature","properties":{"id":"sob-140","name":"Bangladesh Eye Hospital","type":"Private Hospital","source":"Survey of Bangladesh, OpenStreetMap and Google Maps"},"geometry":{"type":"Point","coordinates":[90.388489,23.873678]}},{"type":"Feature","properties":{"id":"sob-141","name":"ARK Hospital Ltd","type":"Private Hospital","source":"Survey of Bangladesh, OpenStreetMap and Google Maps"},"geometry":{"type":"Point","coordinates":[90.413771,23.868349]}},{"type":"Feature","properties":{"id":"sob-142","name":"Rayal Diagnostic Center","type":"Diagnostic Center","source":"Survey of Bangladesh, OpenStreetMap and Google Maps"},"geometry":{"type":"Point","coordinates":[90.415289,23.852083]}},{"type":"Feature","properties":{"id":"sob-143","name":"Railway General Hospital","type":"Government Hospital","source":"Survey of Bangladesh, OpenStreetMap and Google Maps"},"geometry":{"type":"Point","coordinates":[90.424273,23.736397]}},{"type":"Feature","properties":{"id":"sob-144","name":"Mukda Medical College Hospital","type":"Private Hospital","source":"Survey of Bangladesh, OpenStreetMap and Google Maps"},"geometry":{"type":"Point","coordinates":[90.4299,23.731929]}},{"type":"Feature","properties":{"id":"sob-145","name":"Nagar Health Centre","type":"Diagnostic Center","source":"Survey of Bangladesh, OpenStreetMap and Google Maps"},"geometry":{"type":"Point","coordinates":[90.42983,23.731523]}},{"type":"Feature","properties":{"id":"sob-146","name":"Farazi Hospital","type":"Private Hospital","source":"Survey of Bangladesh, OpenStreetMap and Google Maps"},"geometry":{"type":"Point","coordinates":[90.436351,23.762497]}},{"type":"Feature","properties":{"id":"sob-147","name":"Advance Hospital","type":"Private Hospital","source":"Survey of Bangladesh, OpenStreetMap and Google Maps"},"geometry":{"type":"Point","coordinates":[90.436671,23.762478]}},{"type":"Feature","properties":{"id":"sob-148","name":"Alrazi Islamia Hospital","type":"Private Hospital","source":"Survey of Bangladesh, OpenStreetMap and Google Maps"},"geometry":{"type":"Point","coordinates":[90.439798,23.762241]}},{"type":"Feature","properties":{"id":"sob-149","name":"Lion A.Badal Eye Hospital","type":"Private Hospital","source":"Survey of Bangladesh, OpenStreetMap and Google Maps"},"geometry":{"type":"Point","coordinates":[90.439268,23.750704]}},{"type":"Feature","properties":{"id":"sob-150","name":"American International Hospital","type":"Private Hospital","source":"Survey of Bangladesh, OpenStreetMap and Google Maps"},"geometry":{"type":"Point","coordinates":[90.444041,23.759845]}},{"type":"Feature","properties":{"id":"sob-151","name":"Union Helth Care","type":"Government Hospital","source":"Survey of Bangladesh, OpenStreetMap and Google Maps"},"geometry":{"type":"Point","coordinates":[90.42488,23.859543]}},{"type":"Feature","properties":{"id":"sob-152","name":"Khidma Hospital Pvt. Ltd.","type":"Private Hospital","source":"Survey of Bangladesh, OpenStreetMap and Google Maps"},"geometry":{"type":"Point","coordinates":[90.418939,23.749769]}},{"type":"Feature","properties":{"id":"sob-153","name":"Daskhin Khan Paribarik Hospital","type":"Private Hospital","source":"Survey of Bangladesh, OpenStreetMap and Google Maps"},"geometry":{"type":"Point","coordinates":[90.421238,23.860404]}},{"type":"Feature","properties":{"id":"sob-154","name":"KC Hospital","type":"Private Hospital","source":"Survey of Bangladesh, OpenStreetMap and Google Maps"},"geometry":{"type":"Point","coordinates":[90.423177,23.860636]}},{"type":"Feature","properties":{"id":"sob-155","name":"Mamoni Diagnostic Center","type":"Diagnostic Center","source":"Survey of Bangladesh, OpenStreetMap and Google Maps"},"geometry":{"type":"Point","coordinates":[90.417123,23.87076]}},{"type":"Feature","properties":{"id":"sob-156","name":"Islami Bank Hospital","type":"Private Hospital","source":"Survey of Bangladesh, OpenStreetMap and Google Maps"},"geometry":{"type":"Point","coordinates":[90.421594,23.738524]}},{"type":"Feature","properties":{"id":"sob-157","name":"Union Health Center","type":"Government Hospital","source":"Survey of Bangladesh, OpenStreetMap and Google Maps"},"geometry":{"type":"Point","coordinates":[90.434031,23.875212]}},{"type":"Feature","properties":{"id":"sob-158","name":"Achharunechha Memorial Hospital","type":"Private Hospital","source":"Survey of Bangladesh, OpenStreetMap and Google Maps"},"geometry":{"type":"Point","coordinates":[90.462784,23.796965]}},{"type":"Feature","properties":{"id":"sob-159","name":"Upozila Health Complex","type":"Government Hospital","source":"Survey of Bangladesh, OpenStreetMap and Google Maps"},"geometry":{"type":"Point","coordinates":[90.469216,23.79805]}},{"type":"Feature","properties":{"id":"sob-160","name":"Badda Genaral Private Hospital","type":"Private Hospital","source":"Survey of Bangladesh, OpenStreetMap and Google Maps"},"geometry":{"type":"Point","coordinates":[90.425626,23.78443]}},{"type":"Feature","properties":{"id":"sob-161","name":"Lions Eye Hospital","type":"Private Hospital","source":"Survey of Bangladesh, OpenStreetMap and Google Maps"},"geometry":{"type":"Point","coordinates":[90.426002,23.777016]}},{"type":"Feature","properties":{"id":"sob-162","name":"Al Sami Hospital","type":"Private Hospital","source":"Survey of Bangladesh, OpenStreetMap and Google Maps"},"geometry":{"type":"Point","coordinates":[90.426328,23.780269]}},{"type":"Feature","properties":{"id":"sob-163","name":"Dagma Hospital","type":"Private Hospital","source":"Survey of Bangladesh, OpenStreetMap and Google Maps"},"geometry":{"type":"Point","coordinates":[90.425592,23.787539]}},{"type":"Feature","properties":{"id":"sob-164","name":"Gulshan General Hospital","type":"Private Hospital","source":"Survey of Bangladesh, OpenStreetMap and Google Maps"},"geometry":{"type":"Point","coordinates":[90.431824,23.7886]}},{"type":"Feature","properties":{"id":"sob-165","name":"H.A.F General Hospital","type":"Private Hospital","source":"Survey of Bangladesh, OpenStreetMap and Google Maps"},"geometry":{"type":"Point","coordinates":[90.425636,23.787927]}},{"type":"Feature","properties":{"id":"sob-166","name":"Union  Hospital","type":"Private Hospital","source":"Survey of Bangladesh, OpenStreetMap and Google Maps"},"geometry":{"type":"Point","coordinates":[90.426314,23.768071]}},{"type":"Feature","properties":{"id":"sob-167","name":"Aims Hospital","type":"Private Hospital","source":"Survey of Bangladesh, OpenStreetMap and Google Maps"},"geometry":{"type":"Point","coordinates":[90.425955,23.773387]}},{"type":"Feature","properties":{"id":"sob-168","name":"City Hospital","type":"Private Hospital","source":"Survey of Bangladesh, OpenStreetMap and Google Maps"},"geometry":{"type":"Point","coordinates":[90.365547,23.754049]}},{"type":"Feature","properties":{"id":"sob-169","name":"Sp Hospital","type":"Private Hospital","source":"Survey of Bangladesh, OpenStreetMap and Google Maps"},"geometry":{"type":"Point","coordinates":[90.358366,23.766461]}},{"type":"Feature","properties":{"id":"sob-170","name":"Al Manar Hospital","type":"Private Hospital","source":"Survey of Bangladesh, OpenStreetMap and Google Maps"},"geometry":{"type":"Point","coordinates":[90.36319,23.755837]}},{"type":"Feature","properties":{"id":"sob-171","name":"Dhaka D Centre","type":"Diagnostic Center","source":"Survey of Bangladesh, OpenStreetMap and Google Maps"},"geometry":{"type":"Point","coordinates":[90.362064,23.757162]}},{"type":"Feature","properties":{"id":"sob-172","name":"Sarju Hair Clinic","type":"Community Clinic","source":"Survey of Bangladesh, OpenStreetMap and Google Maps"},"geometry":{"type":"Point","coordinates":[90.357935,23.771792]}},{"type":"Feature","properties":{"id":"sob-173","name":"Govt Hospital","type":"Government Hospital","source":"Survey of Bangladesh, OpenStreetMap and Google Maps"},"geometry":{"type":"Point","coordinates":[90.366398,23.76236]}},{"type":"Feature","properties":{"id":"sob-174","name":"Shaheed Suhrawardy Medical College and Hospital","type":"Government Hospital","source":"Survey of Bangladesh, OpenStreetMap and Google Maps"},"geometry":{"type":"Point","coordinates":[90.370229,23.768996]}},{"type":"Feature","properties":{"id":"sob-175","name":"Heart Foundation","type":"Private Hospital","source":"Survey of Bangladesh, OpenStreetMap and Google Maps"},"geometry":{"type":"Point","coordinates":[90.369148,23.770149]}},{"type":"Feature","properties":{"id":"sob-176","name":"Sisu Hospital","type":"Government Hospital","source":"Survey of Bangladesh, OpenStreetMap and Google Maps"},"geometry":{"type":"Point","coordinates":[90.368894,23.772939]}},{"type":"Feature","properties":{"id":"sob-177","name":"Aurthopedic Hospital","type":"Government Hospital","source":"Survey of Bangladesh, OpenStreetMap and Google Maps"},"geometry":{"type":"Point","coordinates":[90.370042,23.773777]}},{"type":"Feature","properties":{"id":"sob-178","name":"TB Hospital","type":"Government Hospital","source":"Survey of Bangladesh, OpenStreetMap and Google Maps"},"geometry":{"type":"Point","coordinates":[90.368986,23.774169]}},{"type":"Feature","properties":{"id":"sob-179","name":"Govt Hospital","type":"Government Hospital","source":"Survey of Bangladesh, OpenStreetMap and Google Maps"},"geometry":{"type":"Point","coordinates":[90.366007,23.762813]}},{"type":"Feature","properties":{"id":"sob-180","name":"Care Hospital","type":"Private Hospital","source":"Survey of Bangladesh, OpenStreetMap and Google Maps"},"geometry":{"type":"Point","coordinates":[90.368534,23.768938]}},{"type":"Feature","properties":{"id":"sob-181","name":"Crisent Hospital","type":"Private Hospital","source":"Survey of Bangladesh, OpenStreetMap and Google Maps"},"geometry":{"type":"Point","coordinates":[90.36811,23.770955]}},{"type":"Feature","properties":{"id":"sob-182","name":"Troma Centre","type":"Private Hospital","source":"Survey of Bangladesh, OpenStreetMap and Google Maps"},"geometry":{"type":"Point","coordinates":[90.36737,23.771994]}},{"type":"Feature","properties":{"id":"sob-183","name":"National Eye Hospital","type":"Government Hospital","source":"Survey of Bangladesh, OpenStreetMap and Google Maps"},"geometry":{"type":"Point","coordinates":[90.369621,23.774429]}},{"type":"Feature","properties":{"id":"sob-184","name":"Care Medical Hospital","type":"Private Hospital","source":"Survey of Bangladesh, OpenStreetMap and Google Maps"},"geometry":{"type":"Point","coordinates":[90.371519,23.762031]}},{"type":"Feature","properties":{"id":"sob-185","name":"Bdm Hospital","type":"Private Hospital","source":"Survey of Bangladesh, OpenStreetMap and Google Maps"},"geometry":{"type":"Point","coordinates":[90.367881,23.768548]}},{"type":"Feature","properties":{"id":"sob-186","name":"Post Officepular Diegonostic Centre","type":"Diagnostic Center","source":"Survey of Bangladesh, OpenStreetMap and Google Maps"},"geometry":{"type":"Point","coordinates":[90.367671,23.77185]}},{"type":"Feature","properties":{"id":"sob-187","name":"Bangladesh Spa Hospital","type":"Private Hospital","source":"Survey of Bangladesh, OpenStreetMap and Google Maps"},"geometry":{"type":"Point","coordinates":[90.362958,23.776549]}},{"type":"Feature","properties":{"id":"sob-188","name":"Neoro Science Hospital","type":"Government Hospital","source":"Survey of Bangladesh, OpenStreetMap and Google Maps"},"geometry":{"type":"Point","coordinates":[90.371432,23.77605]}},{"type":"Feature","properties":{"id":"sob-189","name":"Ent Head Neck Hospital","type":"Private Hospital","source":"Survey of Bangladesh, OpenStreetMap and Google Maps"},"geometry":{"type":"Point","coordinates":[90.369262,23.775947]}},{"type":"Feature","properties":{"id":"sob-190","name":"Morium Hospital","type":"Private Hospital","source":"Survey of Bangladesh, OpenStreetMap and Google Maps"},"geometry":{"type":"Point","coordinates":[90.369581,23.778231]}},{"type":"Feature","properties":{"id":"sob-191","name":"Probin Hospital","type":"Government Hospital","source":"Survey of Bangladesh, OpenStreetMap and Google Maps"},"geometry":{"type":"Point","coordinates":[90.376426,23.778042]}},{"type":"Feature","properties":{"id":"sob-192","name":"Ispahani Islamia Eye Institute &Hospital","type":"Government Hospital","source":"Survey of Bangladesh, OpenStreetMap and Google Maps"},"geometry":{"type":"Point","coordinates":[90.384789,23.75866]}},{"type":"Feature","properties":{"id":"sob-193","name":"Alraji Hospital","type":"Private Hospital","source":"Survey of Bangladesh, OpenStreetMap and Google Maps"},"geometry":{"type":"Point","coordinates":[90.390261,23.759078]}},{"type":"Feature","properties":{"id":"sob-194","name":"National Institute Of ENT","type":"Government Hospital","source":"Survey of Bangladesh, OpenStreetMap and Google Maps"},"geometry":{"type":"Point","coordinates":[90.405587,23.763472]}},{"type":"Feature","properties":{"id":"sob-195","name":"Thana Helth Complex","type":"Government Hospital","source":"Survey of Bangladesh, OpenStreetMap and Google Maps"},"geometry":{"type":"Point","coordinates":[90.405458,23.763789]}},{"type":"Feature","properties":{"id":"sob-196","name":"Central Medecal Sakti Niramoy Kendro","type":"Government Hospital","source":"Survey of Bangladesh, OpenStreetMap and Google Maps"},"geometry":{"type":"Point","coordinates":[90.404532,23.763345]}},{"type":"Feature","properties":{"id":"sob-197","name":"MH Shomorita Hospital & Medical College","type":"Private Hospital","source":"Survey of Bangladesh, OpenStreetMap and Google Maps"},"geometry":{"type":"Point","coordinates":[90.403009,23.763086]}},{"type":"Feature","properties":{"id":"sob-198","name":"Peoples Hospital Ltd","type":"Private Hospital","source":"Survey of Bangladesh, OpenStreetMap and Google Maps"},"geometry":{"type":"Point","coordinates":[90.416082,23.750628]}},{"type":"Feature","properties":{"id":"sob-199","name":"Uttarkhan General Hospital","type":"Unspecified facility","source":"Survey of Bangladesh, OpenStreetMap and Google Maps"},"geometry":{"type":"Point","coordinates":[90.426102,23.868691]}},{"type":"Feature","properties":{"id":"sob-200","name":"Omega Hospital","type":"Unspecified facility","source":"Survey of Bangladesh, OpenStreetMap and Google Maps"},"geometry":{"type":"Point","coordinates":[90.380514,23.897323]}},{"type":"Feature","properties":{"id":"sob-201","name":"East West Medical College and Hospital","type":"Unspecified facility","source":"Survey of Bangladesh, OpenStreetMap and Google Maps"},"geometry":{"type":"Point","coordinates":[90.376901,23.894185]}},{"type":"Feature","properties":{"id":"sob-202","name":"Atlas Hospital Ltd","type":"Private Hospital","source":"Survey of Bangladesh, OpenStreetMap and Google Maps"},"geometry":{"type":"Point","coordinates":[90.387684,23.892032]}},{"type":"Feature","properties":{"id":"sob-203","name":"SHIP International Hospital","type":"Private Hospital","source":"Survey of Bangladesh, OpenStreetMap and Google Maps"},"geometry":{"type":"Point","coordinates":[90.376457,23.894127]}},{"type":"Feature","properties":{"id":"sob-204","name":"Uttara General Hospital Ltd","type":"Private Hospital","source":"Survey of Bangladesh, OpenStreetMap and Google Maps"},"geometry":{"type":"Point","coordinates":[90.390064,23.885362]}},{"type":"Feature","properties":{"id":"sob-205","name":"Ashiyan Medical College Hospital","type":"Private Hospital","source":"Survey of Bangladesh, OpenStreetMap and Google Maps"},"geometry":{"type":"Point","coordinates":[90.453345,23.835848]}},{"type":"Feature","properties":{"id":"sob-206","name":"Urban Primary Health Care Center","type":"Unspecified facility","source":"Survey of Bangladesh, OpenStreetMap and Google Maps"},"geometry":{"type":"Point","coordinates":[90.48004,23.801677]}},{"type":"Feature","properties":{"id":"sob-207","name":"Trimohoni Hospital & Diagnostic Center","type":"Private Hospital","source":"Survey of Bangladesh, OpenStreetMap and Google Maps"},"geometry":{"type":"Point","coordinates":[90.461698,23.759462]}},{"type":"Feature","properties":{"id":"sob-208","name":"Green Bangla Hospital","type":"Unspecified facility","source":"Survey of Bangladesh, OpenStreetMap and Google Maps"},"geometry":{"type":"Point","coordinates":[90.490329,23.720903]}},{"type":"Feature","properties":{"id":"sob-209","name":"Tropical Hospital & Diagnostic Centre Pvt Ltd","type":"Unspecified facility","source":"Survey of Bangladesh, OpenStreetMap and Google Maps"},"geometry":{"type":"Point","coordinates":[90.490291,23.719941]}},{"type":"Feature","properties":{"id":"sob-210","name":"Ar-Rafi Hospital & Diagnostic Center","type":"Unspecified facility","source":"Survey of Bangladesh, OpenStreetMap and Google Maps"},"geometry":{"type":"Point","coordinates":[90.49153,23.719224]}},{"type":"Feature","properties":{"id":"sob-211","name":"Holy Aid Hospital Ltd.","type":"Unspecified facility","source":"Survey of Bangladesh, OpenStreetMap and Google Maps"},"geometry":{"type":"Point","coordinates":[90.490562,23.71904]}},{"type":"Feature","properties":{"id":"sob-212","name":"Seba Hospital, Bikrampur Plaza","type":"Unspecified facility","source":"Survey of Bangladesh, OpenStreetMap and Google Maps"},"geometry":{"type":"Point","coordinates":[90.491046,23.717689]}},{"type":"Feature","properties":{"id":"sob-213","name":"Ibn Khaldun Hospital & Digital Diagnostic","type":"Unspecified facility","source":"Survey of Bangladesh, OpenStreetMap and Google Maps"},"geometry":{"type":"Point","coordinates":[90.487558,23.711422]}},{"type":"Feature","properties":{"id":"sob-214","name":"Faith Point Diagnostic & Consultation Center","type":"Unspecified facility","source":"Survey of Bangladesh, OpenStreetMap and Google Maps"},"geometry":{"type":"Point","coordinates":[90.475411,23.696574]}},{"type":"Feature","properties":{"id":"sob-215","name":"Specialized Medical Care (SMC) Hospital","type":"Unspecified facility","source":"Survey of Bangladesh, OpenStreetMap and Google Maps"},"geometry":{"type":"Point","coordinates":[90.466197,23.696276]}},{"type":"Feature","properties":{"id":"sob-216","name":"Islamia Hospital, Bangladesh","type":"Unspecified facility","source":"Survey of Bangladesh, OpenStreetMap and Google Maps"},"geometry":{"type":"Point","coordinates":[90.457415,23.697518]}},{"type":"Feature","properties":{"id":"sob-217","name":"Rayerbag Multicare Nursing Home","type":"Unspecified facility","source":"Survey of Bangladesh, OpenStreetMap and Google Maps"},"geometry":{"type":"Point","coordinates":[90.456902,23.699126]}},{"type":"Feature","properties":{"id":"sob-218","name":"Holy Care Hospital & Diagnostic Center","type":"Unspecified facility","source":"Survey of Bangladesh, OpenStreetMap and Google Maps"},"geometry":{"type":"Point","coordinates":[90.450218,23.699863]}},{"type":"Feature","properties":{"id":"sob-219","name":"Imperial Royal Hospital Ltd.","type":"Unspecified facility","source":"Survey of Bangladesh, OpenStreetMap and Google Maps"},"geometry":{"type":"Point","coordinates":[90.450409,23.700914]}},{"type":"Feature","properties":{"id":"sob-220","name":"Al-Araf Islami Hospital & Trauma Center Ltd.","type":"Unspecified facility","source":"Survey of Bangladesh, OpenStreetMap and Google Maps"},"geometry":{"type":"Point","coordinates":[90.449383,23.702003]}},{"type":"Feature","properties":{"id":"sob-221","name":"Deshbangla Hospital & Diagnostic Center Limited.","type":"Unspecified facility","source":"Survey of Bangladesh, OpenStreetMap and Google Maps"},"geometry":{"type":"Point","coordinates":[90.448625,23.702517]}},{"type":"Feature","properties":{"id":"sob-222","name":"Anabil Hospital & Diagnostic Center","type":"Unspecified facility","source":"Survey of Bangladesh, OpenStreetMap and Google Maps"},"geometry":{"type":"Point","coordinates":[90.444793,23.704837]}},{"type":"Feature","properties":{"id":"sob-223","name":"New Popy General Hospital and Diagnostic Center","type":"Unspecified facility","source":"Survey of Bangladesh, OpenStreetMap and Google Maps"},"geometry":{"type":"Point","coordinates":[90.45078,23.70365]}},{"type":"Feature","properties":{"id":"sob-224","name":"Safe Aid Hospital and Diagnostic Centre","type":"Unspecified facility","source":"Survey of Bangladesh, OpenStreetMap and Google Maps"},"geometry":{"type":"Point","coordinates":[90.450645,23.703183]}},{"type":"Feature","properties":{"id":"sob-225","name":"Dhaka Paramount Specialized Hospital","type":"Unspecified facility","source":"Survey of Bangladesh, OpenStreetMap and Google Maps"},"geometry":{"type":"Point","coordinates":[90.450216,23.703269]}},{"type":"Feature","properties":{"id":"sob-226","name":"Modern Cure General Hospital Ltd.","type":"Unspecified facility","source":"Survey of Bangladesh, OpenStreetMap and Google Maps"},"geometry":{"type":"Point","coordinates":[90.449553,23.703797]}},{"type":"Feature","properties":{"id":"sob-227","name":"LIFE HOSPITAL","type":"Unspecified facility","source":"Survey of Bangladesh, OpenStreetMap and Google Maps"},"geometry":{"type":"Point","coordinates":[90.449401,23.704033]}},{"type":"Feature","properties":{"id":"sob-228","name":"Pulse Specialised Hospital ltd","type":"Unspecified facility","source":"Survey of Bangladesh, OpenStreetMap and Google Maps"},"geometry":{"type":"Point","coordinates":[90.439253,23.702641]}},{"type":"Feature","properties":{"id":"sob-229","name":"Delta Health Care, Jatrabari Limited","type":"Unspecified facility","source":"Survey of Bangladesh, OpenStreetMap and Google Maps"},"geometry":{"type":"Point","coordinates":[90.435456,23.699139]}},{"type":"Feature","properties":{"id":"sob-230","name":"Sufia General Hospital","type":"Unspecified facility","source":"Survey of Bangladesh, OpenStreetMap and Google Maps"},"geometry":{"type":"Point","coordinates":[90.457006,23.694427]}},{"type":"Feature","properties":{"id":"sob-231","name":"M H Chowdhury General Hospital and Diagnostic Center","type":"Unspecified facility","source":"Survey of Bangladesh, OpenStreetMap and Google Maps"},"geometry":{"type":"Point","coordinates":[90.45127,23.687811]}},{"type":"Feature","properties":{"id":"sob-232","name":"Genome Hospital","type":"Unspecified facility","source":"Survey of Bangladesh, OpenStreetMap and Google Maps"},"geometry":{"type":"Point","coordinates":[90.435268,23.693663]}},{"type":"Feature","properties":{"id":"sob-233","name":"Rog Mukti General Hospital And Diagnostic Centre","type":"Unspecified facility","source":"Survey of Bangladesh, OpenStreetMap and Google Maps"},"geometry":{"type":"Point","coordinates":[90.433379,23.693044]}},{"type":"Feature","properties":{"id":"sob-234","name":"Ad-din Barrister Rafique-ul Huq Hospital","type":"Unspecified facility","source":"Survey of Bangladesh, OpenStreetMap and Google Maps"},"geometry":{"type":"Point","coordinates":[90.432858,23.694782]}},{"type":"Feature","properties":{"id":"sob-235","name":"Dhaka City Hospital & Diagnostic Complex","type":"Unspecified facility","source":"Survey of Bangladesh, OpenStreetMap and Google Maps"},"geometry":{"type":"Point","coordinates":[90.430095,23.690952]}},{"type":"Feature","properties":{"id":"sob-236","name":"Mercy General Hospital","type":"Unspecified facility","source":"Survey of Bangladesh, OpenStreetMap and Google Maps"},"geometry":{"type":"Point","coordinates":[90.430965,23.698922]}},{"type":"Feature","properties":{"id":"sob-237","name":"Lubana General Hospital & Cardiac Center","type":"Unspecified facility","source":"Survey of Bangladesh, OpenStreetMap and Google Maps"},"geometry":{"type":"Point","coordinates":[90.390682,23.870475]}},{"type":"Feature","properties":{"id":"sob-238","name":"Dhaka Specialized Hospital","type":"Unspecified facility","source":"Survey of Bangladesh, OpenStreetMap and Google Maps"},"geometry":{"type":"Point","coordinates":[90.385297,23.869477]}},{"type":"Feature","properties":{"id":"sob-239","name":"Radical Hospitals Ltd.","type":"Unspecified facility","source":"Survey of Bangladesh, OpenStreetMap and Google Maps"},"geometry":{"type":"Point","coordinates":[90.383748,23.869614]}},{"type":"Feature","properties":{"id":"sob-240","name":"Ibn Sina Diagnostic & Consultation Centre, Uttara","type":"Unspecified facility","source":"Survey of Bangladesh, OpenStreetMap and Google Maps"},"geometry":{"type":"Point","coordinates":[90.390999,23.873331]}},{"type":"Feature","properties":{"id":"sob-241","name":"Popular Diagnostic Centre Ltd","type":"Unspecified facility","source":"Survey of Bangladesh, OpenStreetMap and Google Maps"},"geometry":{"type":"Point","coordinates":[90.390701,23.872539]}},{"type":"Feature","properties":{"id":"sob-242","name":"Uttara Hope Hospital & Diagnostic (Pvt) Ltd.","type":"Unspecified facility","source":"Survey of Bangladesh, OpenStreetMap and Google Maps"},"geometry":{"type":"Point","coordinates":[90.379928,23.871731]}},{"type":"Feature","properties":{"id":"sob-243","name":"Aalo Clinic, Mirpur","type":"Unspecified facility","source":"Survey of Bangladesh, OpenStreetMap and Google Maps"},"geometry":{"type":"Point","coordinates":[90.356942,23.828204]}},{"type":"Feature","properties":{"id":"sob-244","name":"OGSB Maternity Hospital","type":"Unspecified facility","source":"Survey of Bangladesh, OpenStreetMap and Google Maps"},"geometry":{"type":"Point","coordinates":[90.353501,23.801461]}},{"type":"Feature","properties":{"id":"sob-245","name":"Lifeline Medical Service Ltd","type":"Unspecified facility","source":"Survey of Bangladesh, OpenStreetMap and Google Maps"},"geometry":{"type":"Point","coordinates":[90.405356,23.780474]}},{"type":"Feature","properties":{"id":"sob-246","name":"MOHAKHALI CANCER AND GENERAL HOSPITAL","type":"Unspecified facility","source":"Survey of Bangladesh, OpenStreetMap and Google Maps"},"geometry":{"type":"Point","coordinates":[90.405737,23.780489]}},{"type":"Feature","properties":{"id":"sob-247","name":"Medilink Hospital","type":"Unspecified facility","source":"Survey of Bangladesh, OpenStreetMap and Google Maps"},"geometry":{"type":"Point","coordinates":[90.426327,23.780659]}},{"type":"Feature","properties":{"id":"sob-248","name":"AMZ Hospital Ltd.","type":"Unspecified facility","source":"Survey of Bangladesh, OpenStreetMap and Google Maps"},"geometry":{"type":"Point","coordinates":[90.42603,23.78432]}},{"type":"Feature","properties":{"id":"sob-249","name":"Shahabuddin Medical College Hospital","type":"Unspecified facility","source":"Survey of Bangladesh, OpenStreetMap and Google Maps"},"geometry":{"type":"Point","coordinates":[90.419719,23.789547]}},{"type":"Feature","properties":{"id":"sob-250","name":"ZAINUL HAQUE SIKDER WOMEN'S MEDICAL COLLEGE & HOSPITAL (PVT.) LTD.","type":"Unspecified facility","source":"Survey of Bangladesh, OpenStreetMap and Google Maps"},"geometry":{"type":"Point","coordinates":[90.420227,23.791412]}},{"type":"Feature","properties":{"id":"sob-251","name":"Cure Medical Center & Hospital","type":"Unspecified facility","source":"Survey of Bangladesh, OpenStreetMap and Google Maps"},"geometry":{"type":"Point","coordinates":[90.412019,23.791037]}},{"type":"Feature","properties":{"id":"sob-252","name":"LABAID GULSHAN","type":"Unspecified facility","source":"Survey of Bangladesh, OpenStreetMap and Google Maps"},"geometry":{"type":"Point","coordinates":[90.412868,23.794161]}},{"type":"Feature","properties":{"id":"sob-253","name":"York Hospital","type":"Unspecified facility","source":"Survey of Bangladesh, OpenStreetMap and Google Maps"},"geometry":{"type":"Point","coordinates":[90.408333,23.796327]}},{"type":"Feature","properties":{"id":"sob-254","name":"Banani Clinic Limited (Specialized Hospital)","type":"Unspecified facility","source":"Survey of Bangladesh, OpenStreetMap and Google Maps"},"geometry":{"type":"Point","coordinates":[90.403542,23.792475]}},{"type":"Feature","properties":{"id":"sob-255","name":"Aalo Clinic, Karail","type":"Unspecified facility","source":"Survey of Bangladesh, OpenStreetMap and Google Maps"},"geometry":{"type":"Point","coordinates":[90.410212,23.786841]}},{"type":"Feature","properties":{"id":"sob-256","name":"Gulf Medical Centre Limited","type":"Unspecified facility","source":"Survey of Bangladesh, OpenStreetMap and Google Maps"},"geometry":{"type":"Point","coordinates":[90.408801,23.789549]}},{"type":"Feature","properties":{"id":"sob-257","name":"Baridhara dohs medical center","type":"Unspecified facility","source":"Survey of Bangladesh, OpenStreetMap and Google Maps"},"geometry":{"type":"Point","coordinates":[90.415691,23.816077]}},{"type":"Feature","properties":{"id":"sob-258","name":"Sneho Urgent Healthcare, Kalachadpur","type":"Unspecified facility","source":"Survey of Bangladesh, OpenStreetMap and Google Maps"},"geometry":{"type":"Point","coordinates":[90.417697,23.812055]}},{"type":"Feature","properties":{"id":"sob-259","name":"Senior Citizens Hospital","type":"Unspecified facility","source":"Survey of Bangladesh, OpenStreetMap and Google Maps"},"geometry":{"type":"Point","coordinates":[90.423928,23.801485]}},{"type":"Feature","properties":{"id":"sob-260","name":"Farazy Diagonistic & Hospital Ltd Natun Bazar","type":"Unspecified facility","source":"Survey of Bangladesh, OpenStreetMap and Google Maps"},"geometry":{"type":"Point","coordinates":[90.427824,23.798011]}},{"type":"Feature","properties":{"id":"sob-261","name":"Madani Hospital Ltd.","type":"Unspecified facility","source":"Survey of Bangladesh, OpenStreetMap and Google Maps"},"geometry":{"type":"Point","coordinates":[90.426107,23.798766]}},{"type":"Feature","properties":{"id":"sob-262","name":"Upasham Health Point-Pvt Ltd.","type":"Unspecified facility","source":"Survey of Bangladesh, OpenStreetMap and Google Maps"},"geometry":{"type":"Point","coordinates":[90.425495,23.795507]}},{"type":"Feature","properties":{"id":"sob-263","name":"BRAC Urban Health Center","type":"Unspecified facility","source":"Survey of Bangladesh, OpenStreetMap and Google Maps"},"geometry":{"type":"Point","coordinates":[90.430383,23.784335]}},{"type":"Feature","properties":{"id":"sob-264","name":"Urban Health Care Center 1","type":"Unspecified facility","source":"Survey of Bangladesh, OpenStreetMap and Google Maps"},"geometry":{"type":"Point","coordinates":[90.427477,23.776576]}},{"type":"Feature","properties":{"id":"sob-265","name":"LABAID Diagnostic Badda","type":"Unspecified facility","source":"Survey of Bangladesh, OpenStreetMap and Google Maps"},"geometry":{"type":"Point","coordinates":[90.425944,23.773777]}},{"type":"Feature","properties":{"id":"sob-266","name":"BM Hospitals\nBLUEMOUNT HOSPITAL AND DIAGNOSTIC PVT. LTD.","type":"Unspecified facility","source":"Survey of Bangladesh, OpenStreetMap and Google Maps"},"geometry":{"type":"Point","coordinates":[90.342214,23.763349]}},{"type":"Feature","properties":{"id":"sob-267","name":"Inan Hospital & Diagnostic Center","type":"Unspecified facility","source":"Survey of Bangladesh, OpenStreetMap and Google Maps"},"geometry":{"type":"Point","coordinates":[90.365703,23.720751]}},{"type":"Feature","properties":{"id":"sob-268","name":"Safwan General Hospital","type":"Unspecified facility","source":"Survey of Bangladesh, OpenStreetMap and Google Maps"},"geometry":{"type":"Point","coordinates":[90.367322,23.709687]}},{"type":"Feature","properties":{"id":"sob-269","name":"BRAC Urban Health Center","type":"Unspecified facility","source":"Survey of Bangladesh, OpenStreetMap and Google Maps"},"geometry":{"type":"Point","coordinates":[90.376483,23.710379]}},{"type":"Feature","properties":{"id":"sob-270","name":"Ar-Raha Hospital & Diagnostics Ltd.","type":"Unspecified facility","source":"Survey of Bangladesh, OpenStreetMap and Google Maps"},"geometry":{"type":"Point","coordinates":[90.415965,23.850268]}},{"type":"Feature","properties":{"id":"sob-271","name":"Better Life Hospital","type":"Private Hospital","source":"Survey of Bangladesh, OpenStreetMap and Google Maps"},"geometry":{"type":"Point","coordinates":[90.418305,23.759094]}},{"type":"Feature","properties":{"id":"sob-272","name":"Ad-Din Medical College Hospital, MaghBazar","type":"Private Hospital","source":"Survey of Bangladesh, OpenStreetMap and Google Maps"},"geometry":{"type":"Point","coordinates":[90.405529,23.748375]}},{"type":"Feature","properties":{"id":"sob-273","name":"Dr. Sirajul Islam Medical College and Hospital Ltd","type":"Private Hospital","source":"Survey of Bangladesh, OpenStreetMap and Google Maps"},"geometry":{"type":"Point","coordinates":[90.410388,23.747289]}},{"type":"Feature","properties":{"id":"sob-274","name":"Aalo Clinic Shyampur","type":"Unspecified facility","source":"Survey of Bangladesh, OpenStreetMap and Google Maps"},"geometry":{"type":"Point","coordinates":[90.440402,23.68001]}},{"type":"Feature","properties":{"id":"sob-275","name":"Uttara Lake View Specialized Hospital (Pvt) LTD","type":"Unspecified facility","source":"Survey of Bangladesh, OpenStreetMap and Google Maps"},"geometry":{"type":"Point","coordinates":[90.394049,23.878482]}},{"type":"Feature","properties":{"id":"sob-276","name":"Revearsal Health Care","type":"Unspecified facility","source":"Survey of Bangladesh, OpenStreetMap and Google Maps"},"geometry":{"type":"Point","coordinates":[90.387785,23.846685]}},{"type":"Feature","properties":{"id":"sob-277","name":"Aichi Medical College & Hospital","type":"Unspecified facility","source":"Survey of Bangladesh, OpenStreetMap and Google Maps"},"geometry":{"type":"Point","coordinates":[90.478822,23.740752]}},{"type":"Feature","properties":{"id":"sob-278","name":"Millennium Specialized Hospital","type":"Unspecified facility","source":"Survey of Bangladesh, OpenStreetMap and Google Maps"},"geometry":{"type":"Point","coordinates":[90.417555,23.702428]}},{"type":"Feature","properties":{"id":"sob-279","name":"Capital General Hospital","type":"Unspecified facility","source":"Survey of Bangladesh, OpenStreetMap and Google Maps"},"geometry":{"type":"Point","coordinates":[90.418989,23.702395]}},{"type":"Feature","properties":{"id":"sob-280","name":"Delta Diagnostic Centre","type":"Unspecified facility","source":"Survey of Bangladesh, OpenStreetMap and Google Maps"},"geometry":{"type":"Point","coordinates":[90.419421,23.702352]}},{"type":"Feature","properties":{"id":"sob-281","name":"Asgar Ali Medical College & Hospital","type":"Unspecified facility","source":"Survey of Bangladesh, OpenStreetMap and Google Maps"},"geometry":{"type":"Point","coordinates":[90.423717,23.707828]}},{"type":"Feature","properties":{"id":"sob-282","name":"Surjer Hashi Clinic","type":"Unspecified facility","source":"Survey of Bangladesh, OpenStreetMap and Google Maps"},"geometry":{"type":"Point","coordinates":[90.422703,23.707495]}},{"type":"Feature","properties":{"id":"sob-283","name":"Al Bayt Hospital","type":"Unspecified facility","source":"Survey of Bangladesh, OpenStreetMap and Google Maps"},"geometry":{"type":"Point","coordinates":[90.434569,23.705233]}},{"type":"Feature","properties":{"id":"sob-284","name":"Meghna General Hospital","type":"Unspecified facility","source":"Survey of Bangladesh, OpenStreetMap and Google Maps"},"geometry":{"type":"Point","coordinates":[90.40376,23.711366]}},{"type":"Feature","properties":{"id":"sob-285","name":"Dhaka Mohanagar General Hospital","type":"Unspecified facility","source":"Survey of Bangladesh, OpenStreetMap and Google Maps"},"geometry":{"type":"Point","coordinates":[90.405066,23.714043]}},{"type":"Feature","properties":{"id":"sob-286","name":"Dolfin Hospital and Infertility Centre","type":"Unspecified facility","source":"Survey of Bangladesh, OpenStreetMap and Google Maps"},"geometry":{"type":"Point","coordinates":[90.373266,23.719096]}},{"type":"Feature","properties":{"id":"sob-287","name":"Urban Community Clinic","type":"Unspecified facility","source":"Survey of Bangladesh, OpenStreetMap and Google Maps"},"geometry":{"type":"Point","coordinates":[90.364908,23.73548]}},{"type":"Feature","properties":{"id":"sob-288","name":"Japan Bangladesh Friendship Hospital","type":"Unspecified facility","source":"Survey of Bangladesh, OpenStreetMap and Google Maps"},"geometry":{"type":"Point","coordinates":[90.375145,23.739613]}},{"type":"Feature","properties":{"id":"sob-289","name":"Government Remeta Employee Hospital","type":"Unspecified facility","source":"Survey of Bangladesh, OpenStreetMap and Google Maps"},"geometry":{"type":"Point","coordinates":[90.374209,23.740591]}},{"type":"Feature","properties":{"id":"sob-290","name":"Retired Government Employee Hospital","type":"Unspecified facility","source":"Survey of Bangladesh, OpenStreetMap and Google Maps"},"geometry":{"type":"Point","coordinates":[90.373232,23.741441]}},{"type":"Feature","properties":{"id":"sob-291","name":"Dr Fazlul Haque Colorectal Hospital Ltd.","type":"Unspecified facility","source":"Survey of Bangladesh, OpenStreetMap and Google Maps"},"geometry":{"type":"Point","coordinates":[90.372815,23.743617]}},{"type":"Feature","properties":{"id":"sob-292","name":"Eden Multi Care Hospital","type":"Unspecified facility","source":"Survey of Bangladesh, OpenStreetMap and Google Maps"},"geometry":{"type":"Point","coordinates":[90.37031,23.747181]}},{"type":"Feature","properties":{"id":"sob-293","name":"Naaz Hospital","type":"Unspecified facility","source":"Survey of Bangladesh, OpenStreetMap and Google Maps"},"geometry":{"type":"Point","coordinates":[90.370412,23.747318]}},{"type":"Feature","properties":{"id":"sob-294","name":"Apollo Clinic Dhanmondi","type":"Unspecified facility","source":"Survey of Bangladesh, OpenStreetMap and Google Maps"},"geometry":{"type":"Point","coordinates":[90.369029,23.749288]}},{"type":"Feature","properties":{"id":"sob-295","name":"Bangladesh Medical College Hospital","type":"Unspecified facility","source":"Survey of Bangladesh, OpenStreetMap and Google Maps"},"geometry":{"type":"Point","coordinates":[90.369831,23.750392]}},{"type":"Feature","properties":{"id":"sob-296","name":"Rainbow Heart Limited","type":"Unspecified facility","source":"Survey of Bangladesh, OpenStreetMap and Google Maps"},"geometry":{"type":"Point","coordinates":[90.368625,23.750011]}},{"type":"Feature","properties":{"id":"sob-297","name":"Dhaka Cancer and General Hospital","type":"Unspecified facility","source":"Survey of Bangladesh, OpenStreetMap and Google Maps"},"geometry":{"type":"Point","coordinates":[90.368499,23.750776]}},{"type":"Feature","properties":{"id":"sob-298","name":"Ibn Sina Specialized Hospital","type":"Unspecified facility","source":"Survey of Bangladesh, OpenStreetMap and Google Maps"},"geometry":{"type":"Point","coordinates":[90.368854,23.751348]}},{"type":"Feature","properties":{"id":"sob-299","name":"Al-Manar Specialized Hospital","type":"Unspecified facility","source":"Survey of Bangladesh, OpenStreetMap and Google Maps"},"geometry":{"type":"Point","coordinates":[90.364707,23.754784]}},{"type":"Feature","properties":{"id":"sob-300","name":"Nobodoy 9 Tala Hospital","type":"Unspecified facility","source":"Survey of Bangladesh, OpenStreetMap and Google Maps"},"geometry":{"type":"Point","coordinates":[90.352301,23.761587]}},{"type":"Feature","properties":{"id":"sob-301","name":"Paramount Hospital and Diagnostic Center","type":"Unspecified facility","source":"Survey of Bangladesh, OpenStreetMap and Google Maps"},"geometry":{"type":"Point","coordinates":[90.348023,23.766504]}},{"type":"Feature","properties":{"id":"sob-302","name":"BIHS General Hospital","type":"Unspecified facility","source":"Survey of Bangladesh, OpenStreetMap and Google Maps"},"geometry":{"type":"Point","coordinates":[90.352658,23.782181]}},{"type":"Feature","properties":{"id":"sob-303","name":"Human Aid Research Lab and Hospital","type":"Unspecified facility","source":"Survey of Bangladesh, OpenStreetMap and Google Maps"},"geometry":{"type":"Point","coordinates":[90.355203,23.779355]}},{"type":"Feature","properties":{"id":"sob-304","name":"CKD & Urology Hospital","type":"Unspecified facility","source":"Survey of Bangladesh, OpenStreetMap and Google Maps"},"geometry":{"type":"Point","coordinates":[90.364746,23.776941]}},{"type":"Feature","properties":{"id":"sob-305","name":"Dhaka Trauma Center and Specialized Orthopedic Hospital","type":"Unspecified facility","source":"Survey of Bangladesh, OpenStreetMap and Google Maps"},"geometry":{"type":"Point","coordinates":[90.366266,23.773818]}},{"type":"Feature","properties":{"id":"sob-306","name":"Sheba General Hospital and Diagnostic Center","type":"Unspecified facility","source":"Survey of Bangladesh, OpenStreetMap and Google Maps"},"geometry":{"type":"Point","coordinates":[90.366589,23.77254]}},{"type":"Feature","properties":{"id":"sob-307","name":"National Healthcare General Hospital","type":"Unspecified facility","source":"Survey of Bangladesh, OpenStreetMap and Google Maps"},"geometry":{"type":"Point","coordinates":[90.36646,23.772072]}},{"type":"Feature","properties":{"id":"sob-308","name":"National Institute of Kidney Diseases & Urology","type":"Unspecified facility","source":"Survey of Bangladesh, OpenStreetMap and Google Maps"},"geometry":{"type":"Point","coordinates":[90.368674,23.771609]}},{"type":"Feature","properties":{"id":"sob-309","name":"Victoria Healthcare LTD","type":"Unspecified facility","source":"Survey of Bangladesh, OpenStreetMap and Google Maps"},"geometry":{"type":"Point","coordinates":[90.367719,23.770923]}},{"type":"Feature","properties":{"id":"sob-310","name":"Dhaka General and Orthopedic Hospital","type":"Unspecified facility","source":"Survey of Bangladesh, OpenStreetMap and Google Maps"},"geometry":{"type":"Point","coordinates":[90.366817,23.768136]}},{"type":"Feature","properties":{"id":"sob-311","name":"Bangladesh Critical Care and General Hospital","type":"Unspecified facility","source":"Survey of Bangladesh, OpenStreetMap and Google Maps"},"geometry":{"type":"Point","coordinates":[90.373906,23.757059]}},{"type":"Feature","properties":{"id":"sob-312","name":"Bangladesh ENT Hospital","type":"Unspecified facility","source":"Survey of Bangladesh, OpenStreetMap and Google Maps"},"geometry":{"type":"Point","coordinates":[90.376057,23.755654]}},{"type":"Feature","properties":{"id":"sob-313","name":"Farabi General Hospital","type":"Unspecified facility","source":"Survey of Bangladesh, OpenStreetMap and Google Maps"},"geometry":{"type":"Point","coordinates":[90.374783,23.75418]}},{"type":"Feature","properties":{"id":"sob-314","name":"Long Life Hospital Limited","type":"Unspecified facility","source":"Survey of Bangladesh, OpenStreetMap and Google Maps"},"geometry":{"type":"Point","coordinates":[90.379289,23.750162]}},{"type":"Feature","properties":{"id":"sob-315","name":"CIMEC Health","type":"Unspecified facility","source":"Survey of Bangladesh, OpenStreetMap and Google Maps"},"geometry":{"type":"Point","coordinates":[90.382084,23.743531]}},{"type":"Feature","properties":{"id":"sob-316","name":"Anwar Khan Modern Hospital","type":"Unspecified facility","source":"Survey of Bangladesh, OpenStreetMap and Google Maps"},"geometry":{"type":"Point","coordinates":[90.381787,23.745513]}},{"type":"Feature","properties":{"id":"sob-317","name":"Central Hospital Limited","type":"Unspecified facility","source":"Survey of Bangladesh, OpenStreetMap and Google Maps"},"geometry":{"type":"Point","coordinates":[90.384133,23.743382]}},{"type":"Feature","properties":{"id":"sob-318","name":"Dr. Meherun Nessa Clinic","type":"Unspecified facility","source":"Survey of Bangladesh, OpenStreetMap and Google Maps"},"geometry":{"type":"Point","coordinates":[90.38396,23.742828]}},{"type":"Feature","properties":{"id":"sob-319","name":"Labaid Hospital","type":"Unspecified facility","source":"Survey of Bangladesh, OpenStreetMap and Google Maps"},"geometry":{"type":"Point","coordinates":[90.383012,23.741802]}},{"type":"Feature","properties":{"id":"sob-320","name":"Grace Hospital","type":"Unspecified facility","source":"Survey of Bangladesh, OpenStreetMap and Google Maps"},"geometry":{"type":"Point","coordinates":[90.384031,23.741955]}},{"type":"Feature","properties":{"id":"sob-321","name":"Unico Hospitals PLC","type":"Unspecified facility","source":"Survey of Bangladesh, OpenStreetMap and Google Maps"},"geometry":{"type":"Point","coordinates":[90.384882,23.74426]}},{"type":"Feature","properties":{"id":"sob-322","name":"Dhanmondi Hospital (PVT)","type":"Unspecified facility","source":"Survey of Bangladesh, OpenStreetMap and Google Maps"},"geometry":{"type":"Point","coordinates":[90.384574,23.744551]}},{"type":"Feature","properties":{"id":"sob-323","name":"New Life Hospital Limited","type":"Unspecified facility","source":"Survey of Bangladesh, OpenStreetMap and Google Maps"},"geometry":{"type":"Point","coordinates":[90.385332,23.745395]}},{"type":"Feature","properties":{"id":"sob-324","name":"Crescent Gastroliver & General Hospital","type":"Unspecified facility","source":"Survey of Bangladesh, OpenStreetMap and Google Maps"},"geometry":{"type":"Point","coordinates":[90.38545,23.745307]}},{"type":"Feature","properties":{"id":"sob-325","name":"Reliance General & Renal Hospital","type":"Unspecified facility","source":"Survey of Bangladesh, OpenStreetMap and Google Maps"},"geometry":{"type":"Point","coordinates":[90.386281,23.74581]}},{"type":"Feature","properties":{"id":"sob-326","name":"Manob Hospital","type":"Unspecified facility","source":"Survey of Bangladesh, OpenStreetMap and Google Maps"},"geometry":{"type":"Point","coordinates":[90.386535,23.748372]}},{"type":"Feature","properties":{"id":"sob-327","name":"SIBL Foundation Hospital","type":"Unspecified facility","source":"Survey of Bangladesh, OpenStreetMap and Google Maps"},"geometry":{"type":"Point","coordinates":[90.38712,23.750662]}},{"type":"Feature","properties":{"id":"sob-328","name":"Health and Hope Hospital","type":"Unspecified facility","source":"Survey of Bangladesh, OpenStreetMap and Google Maps"},"geometry":{"type":"Point","coordinates":[90.385576,23.751632]}},{"type":"Feature","properties":{"id":"sob-329","name":"Samorita Hospital","type":"Unspecified facility","source":"Survey of Bangladesh, OpenStreetMap and Google Maps"},"geometry":{"type":"Point","coordinates":[90.385331,23.75238]}},{"type":"Feature","properties":{"id":"sob-330","name":"BRB Hospital","type":"Unspecified facility","source":"Survey of Bangladesh, OpenStreetMap and Google Maps"},"geometry":{"type":"Point","coordinates":[90.385519,23.752206]}},{"type":"Feature","properties":{"id":"sob-331","name":"Platinum Hospital Limited","type":"Unspecified facility","source":"Survey of Bangladesh, OpenStreetMap and Google Maps"},"geometry":{"type":"Point","coordinates":[90.388747,23.750386]}},{"type":"Feature","properties":{"id":"sob-332","name":"Padma General Hospital, Sonargaon Road","type":"Unspecified facility","source":"Survey of Bangladesh, OpenStreetMap and Google Maps"},"geometry":{"type":"Point","coordinates":[90.392556,23.747334]}},{"type":"Feature","properties":{"id":"sob-333","name":"Abeer General Hospital","type":"Unspecified facility","source":"Survey of Bangladesh, OpenStreetMap and Google Maps"},"geometry":{"type":"Point","coordinates":[90.398765,23.748031]}},{"type":"Feature","properties":{"id":"sob-334","name":"Neuro Care and Research Foundation","type":"Unspecified facility","source":"Survey of Bangladesh, OpenStreetMap and Google Maps"},"geometry":{"type":"Point","coordinates":[90.40103,23.747511]}},{"type":"Feature","properties":{"id":"sob-335","name":"Memory Medical Center","type":"Unspecified facility","source":"Survey of Bangladesh, OpenStreetMap and Google Maps"},"geometry":{"type":"Point","coordinates":[90.399886,23.747729]}},{"type":"Feature","properties":{"id":"sob-336","name":"Rushmono Specialized Hospital","type":"Unspecified facility","source":"Survey of Bangladesh, OpenStreetMap and Google Maps"},"geometry":{"type":"Point","coordinates":[90.407661,23.749115]}},{"type":"Feature","properties":{"id":"sob-337","name":"Urban Primary Health Care Service Delivery Project","type":"Government","source":"Survey of Bangladesh, OpenStreetMap and Google Maps"},"geometry":{"type":"Point","coordinates":[90.407786,23.753449]}},{"type":"Feature","properties":{"id":"sob-338","name":"Atish Diponkor Sarak, Hospital","type":"Unspecified facility","source":"Survey of Bangladesh, OpenStreetMap and Google Maps"},"geometry":{"type":"Point","coordinates":[90.428735,23.737402]}},{"type":"Feature","properties":{"id":"sob-339","name":"Khilgaon General Hospital","type":"Unspecified facility","source":"Survey of Bangladesh, OpenStreetMap and Google Maps"},"geometry":{"type":"Point","coordinates":[90.426874,23.743132]}},{"type":"Feature","properties":{"id":"sob-340","name":"Central Basabo General Hospital","type":"Unspecified facility","source":"Survey of Bangladesh, OpenStreetMap and Google Maps"},"geometry":{"type":"Point","coordinates":[90.43433,23.740679]}},{"type":"Feature","properties":{"id":"sob-341","name":"Delta Health Care, Mirpur","type":"Unspecified facility","source":"Survey of Bangladesh, OpenStreetMap and Google Maps"},"geometry":{"type":"Point","coordinates":[90.365765,23.816552]}},{"type":"Feature","properties":{"id":"sob-342","name":"Ash-Shafi Hospital","type":"Unspecified facility","source":"Survey of Bangladesh, OpenStreetMap and Google Maps"},"geometry":{"type":"Point","coordinates":[90.368277,23.811542]}},{"type":"Feature","properties":{"id":"sob-343","name":"Aalok Healthcare","type":"Unspecified facility","source":"Survey of Bangladesh, OpenStreetMap and Google Maps"},"geometry":{"type":"Point","coordinates":[90.367501,23.809077]}},{"type":"Feature","properties":{"id":"sob-344","name":"FSCD Burn Unite Hospital","type":"Unspecified facility","source":"Survey of Bangladesh, OpenStreetMap and Google Maps"},"geometry":{"type":"Point","coordinates":[90.367903,23.808069]}},{"type":"Feature","properties":{"id":"sob-345","name":"Jhopkins Health Care","type":"Unspecified facility","source":"Survey of Bangladesh, OpenStreetMap and Google Maps"},"geometry":{"type":"Point","coordinates":[90.369146,23.80454]}},{"type":"Feature","properties":{"id":"sob-346","name":"Life Aid Specialized Hospital Pvt. Ltd","type":"Unspecified facility","source":"Survey of Bangladesh, OpenStreetMap and Google Maps"},"geometry":{"type":"Point","coordinates":[90.371803,23.800295]}},{"type":"Feature","properties":{"id":"sob-347","name":"Assurance Hospital","type":"Unspecified facility","source":"Survey of Bangladesh, OpenStreetMap and Google Maps"},"geometry":{"type":"Point","coordinates":[90.37304,23.796019]}},{"type":"Feature","properties":{"id":"sob-348","name":"Green Specialized Hospital (pvt. Ltd.)","type":"Unspecified facility","source":"Survey of Bangladesh, OpenStreetMap and Google Maps"},"geometry":{"type":"Point","coordinates":[90.377423,23.78692]}},{"type":"Feature","properties":{"id":"sob-349","name":"Monira General Hospital","type":"Unspecified facility","source":"Survey of Bangladesh, OpenStreetMap and Google Maps"},"geometry":{"type":"Point","coordinates":[90.368271,23.779203]}},{"type":"Feature","properties":{"id":"sob-350","name":"Medi Home Hospital","type":"Unspecified facility","source":"Survey of Bangladesh, OpenStreetMap and Google Maps"},"geometry":{"type":"Point","coordinates":[90.366023,23.791112]}},{"type":"Feature","properties":{"id":"sob-351","name":"Joya Hospital","type":"Unspecified facility","source":"Survey of Bangladesh, OpenStreetMap and Google Maps"},"geometry":{"type":"Point","coordinates":[90.366456,23.791279]}},{"type":"Feature","properties":{"id":"sob-352","name":"Hitech Multicare Hospital","type":"Unspecified facility","source":"Survey of Bangladesh, OpenStreetMap and Google Maps"},"geometry":{"type":"Point","coordinates":[90.388155,23.788152]}},{"type":"Feature","properties":{"id":"sob-353","name":"Mirpur Specialized Hospital","type":"Unspecified facility","source":"Survey of Bangladesh, OpenStreetMap and Google Maps"},"geometry":{"type":"Point","coordinates":[90.347957,23.788545]}},{"type":"Feature","properties":{"id":"sob-354","name":"Global Specialized Hospital","type":"Unspecified facility","source":"Survey of Bangladesh, OpenStreetMap and Google Maps"},"geometry":{"type":"Point","coordinates":[90.347917,23.786662]}},{"type":"Feature","properties":{"id":"sob-355","name":"B.M. Hospital","type":"Unspecified facility","source":"Survey of Bangladesh, OpenStreetMap and Google Maps"},"geometry":{"type":"Point","coordinates":[90.354511,23.798002]}},{"type":"Feature","properties":{"id":"sob-356","name":"Anwer Khan Modern Medical College Hospital","type":"Unspecified facility","source":"Survey of Bangladesh, OpenStreetMap and Google Maps"},"geometry":{"type":"Point","coordinates":[90.356645,23.817245]}},{"type":"Feature","properties":{"id":"sob-357","name":"St. John Vianny Hospital","type":"Unspecified facility","source":"Survey of Bangladesh, OpenStreetMap and Google Maps"},"geometry":{"type":"Point","coordinates":[90.390558,23.758857]}},{"type":"Feature","properties":{"id":"sob-358","name":"Al Hayat Medical Center","type":"Unspecified facility","source":"Survey of Bangladesh, OpenStreetMap and Google Maps"},"geometry":{"type":"Point","coordinates":[90.398792,23.7679]}},{"type":"Feature","properties":{"id":"sob-359","name":"Zara Health Care","type":"Unspecified facility","source":"Survey of Bangladesh, OpenStreetMap and Google Maps"},"geometry":{"type":"Point","coordinates":[90.399742,23.76772]}},{"type":"Feature","properties":{"id":"sob-360","name":"Mohammadpur Swasthoseba Kendro","type":"Unspecified facility","source":"Survey of Bangladesh, OpenStreetMap and Google Maps"},"geometry":{"type":"Point","coordinates":[90.361771,23.763263]}},{"type":"Feature","properties":{"id":"sob-361","name":"Government Employee Hospital","type":"Unspecified facility","source":"Survey of Bangladesh, OpenStreetMap and Google Maps"},"geometry":{"type":"Point","coordinates":[90.405156,23.7253]}},{"type":"Feature","properties":{"id":"sob-362","name":"Monowara Orthopedic and General Hospital","type":"Unspecified facility","source":"Survey of Bangladesh, OpenStreetMap and Google Maps"},"geometry":{"type":"Point","coordinates":[90.428843,23.719814]}},{"type":"Feature","properties":{"id":"sob-363","name":"Al-Falah General Hospital and Diagnostic Center","type":"Unspecified facility","source":"Survey of Bangladesh, OpenStreetMap and Google Maps"},"geometry":{"type":"Point","coordinates":[90.428876,23.721908]}},{"type":"Feature","properties":{"id":"sob-364","name":"Shaheed Khalek Ibrahim General Hospital","type":"Unspecified facility","source":"Survey of Bangladesh, OpenStreetMap and Google Maps"},"geometry":{"type":"Point","coordinates":[90.416378,23.71582]}},{"type":"Feature","properties":{"id":"sob-365","name":"Nibedita Shishu Hospital Ltd","type":"Unspecified facility","source":"Survey of Bangladesh, OpenStreetMap and Google Maps"},"geometry":{"type":"Point","coordinates":[90.415685,23.717971]}},{"type":"Feature","properties":{"id":"sob-366","name":"Dr. Muttalib Community Hospital","type":"Unspecified facility","source":"Survey of Bangladesh, OpenStreetMap and Google Maps"},"geometry":{"type":"Point","coordinates":[90.41118,23.734647]}},{"type":"Feature","properties":{"id":"sob-367","name":"Islami Bank Central Hospital, Kakrail","type":"Unspecified facility","source":"Survey of Bangladesh, OpenStreetMap and Google Maps"},"geometry":{"type":"Point","coordinates":[90.409684,23.737563]}},{"type":"Feature","properties":{"id":"sob-368","name":"Times multicare Hospital","type":"Unspecified facility","source":"Survey of Bangladesh, OpenStreetMap and Google Maps"},"geometry":{"type":"Point","coordinates":[90.409706,23.738109]}},{"type":"Feature","properties":{"id":"sob-369","name":"Proshanti Hospital Ltd","type":"Unspecified facility","source":"Survey of Bangladesh, OpenStreetMap and Google Maps"},"geometry":{"type":"Point","coordinates":[90.415605,23.743707]}},{"type":"Feature","properties":{"id":"sob-370","name":"BNK Hospital Limited","type":"Unspecified facility","source":"Survey of Bangladesh, OpenStreetMap and Google Maps"},"geometry":{"type":"Point","coordinates":[90.416003,23.743485]}},{"type":"Feature","properties":{"id":"sob-371","name":"Thalassemia Foundation Hospital","type":"Unspecified facility","source":"Survey of Bangladesh, OpenStreetMap and Google Maps"},"geometry":{"type":"Point","coordinates":[90.414359,23.744601]}},{"type":"Feature","properties":{"id":"sob-372","name":"Dhaka Community Medical College and Hospital","type":"Unspecified facility","source":"Survey of Bangladesh, OpenStreetMap and Google Maps"},"geometry":{"type":"Point","coordinates":[90.409285,23.749906]}},{"type":"Feature","properties":{"id":"sob-373","name":"Nagor Shahtho Kendro 5","type":"Unspecified facility","source":"Survey of Bangladesh, OpenStreetMap and Google Maps"},"geometry":{"type":"Point","coordinates":[90.360541,23.751548]}},{"type":"Feature","properties":{"id":"sob-374","name":"Bangladesh Eye Trust Hospital","type":"Unspecified facility","source":"Survey of Bangladesh, OpenStreetMap and Google Maps"},"geometry":{"type":"Point","coordinates":[90.359835,23.745618]}},{"type":"Feature","properties":{"id":"sob-375","name":"Home Care Hospital","type":"Unspecified facility","source":"Survey of Bangladesh, OpenStreetMap and Google Maps"},"geometry":{"type":"Point","coordinates":[90.388262,23.735155]}},{"type":"Feature","properties":{"id":"sob-376","name":"Sneho Urgent Healthcare","type":"Unspecified facility","source":"Survey of Bangladesh, OpenStreetMap and Google Maps"},"geometry":{"type":"Point","coordinates":[90.388336,23.834237]}},{"type":"Feature","properties":{"id":"sob-377","name":"Nagar Shastho Kendro 4","type":"Unspecified facility","source":"Survey of Bangladesh, OpenStreetMap and Google Maps"},"geometry":{"type":"Point","coordinates":[90.382961,23.797642]}},{"type":"Feature","properties":{"id":"sob-378","name":"Combined Care Hospital Ltd","type":"Unspecified facility","source":"Survey of Bangladesh, OpenStreetMap and Google Maps"},"geometry":{"type":"Point","coordinates":[90.387618,23.7913]}},{"type":"Feature","properties":{"id":"sob-379","name":"Dhaka Mohanagar Shishu Hospital","type":"Unspecified facility","source":"Survey of Bangladesh, OpenStreetMap and Google Maps"},"geometry":{"type":"Point","coordinates":[90.392511,23.718062]}},{"type":"Feature","properties":{"id":"sob-380","name":"Ibn Sina Diagnostic and Consultation Center","type":"Unspecified facility","source":"Survey of Bangladesh, OpenStreetMap and Google Maps"},"geometry":{"type":"Point","coordinates":[90.388964,23.721356]}},{"type":"Feature","properties":{"id":"sob-381","name":"Health Aid Diagnostic Center","type":"Unspecified facility","source":"Survey of Bangladesh, OpenStreetMap and Google Maps"},"geometry":{"type":"Point","coordinates":[90.388146,23.721436]}},{"type":"Feature","properties":{"id":"sob-382","name":"New Satata Diagnostic Center","type":"Unspecified facility","source":"Survey of Bangladesh, OpenStreetMap and Google Maps"},"geometry":{"type":"Point","coordinates":[90.387372,23.724061]}},{"type":"Feature","properties":{"id":"sob-383","name":"Nagar Shastho Kendro 2","type":"Unspecified facility","source":"Survey of Bangladesh, OpenStreetMap and Google Maps"},"geometry":{"type":"Point","coordinates":[90.381558,23.726379]}},{"type":"Feature","properties":{"id":"sob-384","name":"Aastar Hospital","type":"Unspecified facility","source":"Survey of Bangladesh, OpenStreetMap and Google Maps"},"geometry":{"type":"Point","coordinates":[90.444555,23.880064]}},{"type":"Feature","properties":{"id":"sob-385","name":"Shushastho Urban Health Center","type":"Unspecified facility","source":"Survey of Bangladesh, OpenStreetMap and Google Maps"},"geometry":{"type":"Point","coordinates":[90.439401,23.716322]}},{"type":"Feature","properties":{"id":"sob-386","name":"Famous Hospital and Diagnostic Center","type":"Unspecified facility","source":"Survey of Bangladesh, OpenStreetMap and Google Maps"},"geometry":{"type":"Point","coordinates":[90.469075,23.71406]}},{"type":"Feature","properties":{"id":"sob-387","name":"Medi Hope General Hospital","type":"Unspecified facility","source":"Survey of Bangladesh, OpenStreetMap and Google Maps"},"geometry":{"type":"Point","coordinates":[90.469803,23.712503]}},{"type":"Feature","properties":{"id":"sob-388","name":"Dhaka Islamia General Hospital","type":"Unspecified facility","source":"Survey of Bangladesh, OpenStreetMap and Google Maps"},"geometry":{"type":"Point","coordinates":[90.469809,23.712049]}},{"type":"Feature","properties":{"id":"sob-389","name":"Royal Max Hospital Ltd","type":"Unspecified facility","source":"Survey of Bangladesh, OpenStreetMap and Google Maps"},"geometry":{"type":"Point","coordinates":[90.469586,23.713116]}},{"type":"Feature","properties":{"id":"sob-390","name":"Unity Aid Hospital","type":"Unspecified facility","source":"Survey of Bangladesh, OpenStreetMap and Google Maps"},"geometry":{"type":"Point","coordinates":[90.441033,23.749692]}},{"type":"Feature","properties":{"id":"sob-391","name":"Islami Bank Hospital, Mugda","type":"Unspecified facility","source":"Survey of Bangladesh, OpenStreetMap and Google Maps"},"geometry":{"type":"Point","coordinates":[90.433747,23.728765]}},{"type":"Feature","properties":{"id":"sob-392","name":"Popular Diagnostic Center Ltd.","type":"Unspecified facility","source":"Survey of Bangladesh, OpenStreetMap and Google Maps"},"geometry":{"type":"Point","coordinates":[90.425139,23.788217]}},{"type":"Feature","properties":{"id":"sob-393","name":"Ramakrishna Mission Medical Service Center","type":"Unspecified facility","source":"Survey of Bangladesh, OpenStreetMap and Google Maps"},"geometry":{"type":"Point","coordinates":[90.423004,23.721366]}},{"type":"Feature","properties":{"id":"sob-394","name":"T & T Colony Clinic","type":"Unspecified facility","source":"Survey of Bangladesh, OpenStreetMap and Google Maps"},"geometry":{"type":"Point","coordinates":[90.419167,23.734886]}},{"type":"Feature","properties":{"id":"sob-395","name":"Anwar Khan Modern Diagnostic Centre - Fakirapool","type":"Unspecified facility","source":"Survey of Bangladesh, OpenStreetMap and Google Maps"},"geometry":{"type":"Point","coordinates":[90.415786,23.731293]}},{"type":"Feature","properties":{"id":"sob-396","name":"Best-Diagnostic & Medical Limited","type":"Unspecified facility","source":"Survey of Bangladesh, OpenStreetMap and Google Maps"},"geometry":{"type":"Point","coordinates":[90.416093,23.733814]}},{"type":"Feature","properties":{"id":"sob-397","name":"Ahmed Specialized Hospital","type":"Unspecified facility","source":"Survey of Bangladesh, OpenStreetMap and Google Maps"},"geometry":{"type":"Point","coordinates":[90.400913,23.723649]}},{"type":"Feature","properties":{"id":"sob-398","name":"Chankharpul General Hospital","type":"Unspecified facility","source":"Survey of Bangladesh, OpenStreetMap and Google Maps"},"geometry":{"type":"Point","coordinates":[90.400797,23.723585]}},{"type":"Feature","properties":{"id":"sob-399","name":"ICU Specialized Hospital","type":"Unspecified facility","source":"Survey of Bangladesh, OpenStreetMap and Google Maps"},"geometry":{"type":"Point","coordinates":[90.400609,23.723021]}},{"type":"Feature","properties":{"id":"sob-400","name":"Dhaka National Medical Institute Hospital","type":"Unspecified facility","source":"Survey of Bangladesh, OpenStreetMap and Google Maps"},"geometry":{"type":"Point","coordinates":[90.412435,23.710605]}},{"type":"Feature","properties":{"id":"sob-401","name":"Sumona Hospital Ltd.","type":"Unspecified facility","source":"Survey of Bangladesh, OpenStreetMap and Google Maps"},"geometry":{"type":"Point","coordinates":[90.409958,23.707891]}},{"type":"Feature","properties":{"id":"sob-402","name":"Nagar Shastho Kendro","type":"Unspecified facility","source":"Survey of Bangladesh, OpenStreetMap and Google Maps"},"geometry":{"type":"Point","coordinates":[90.420481,23.702082]}}]}